{
  "type": "FeatureCollection",
  "features": [
    {
      "type": "Feature",
      "properties": {
        "CITYNAME": "Davie",
        "name": "City-wide",
        "schedule_2025": "Monthly bulk pickup",
        "CONTACT": "Davie Public Works",
        "PHONE": "(954) 797-1021"
      },
      "geometry": {
        "type": "Polygon",
        "coordinates": [
          [
            [
              -80.28825194828336,
              26.058429118737077
            ],
            [
              -80.28826819835476,
              26.05893244170012
            ],
            [
              -80.28828419607116,
              26.059435534117693
            ],
            [
              -80.2882929392924,
              26.05971092733867
            ],
            [
              -80.28830616653352,
              26.060126425914948
            ],
            [
              -80.28831618582923,
              26.06044286425667
            ],
            [
              -80.28836188331837,
              26.060441485523675
            ],
            [
              -80.28900725011239,
              26.060421738155046
            ],
            [
              -80.28944570380068,
              26.06040830634689
            ],
            [
              -80.28970745675954,
              26.060400194278667
            ],
            [
              -80.29032540307138,
              26.060381452453136
            ],
            [
              -80.2903711029152,
              26.060379842924906
            ],
            [
              -80.2913523532447,
              26.06035004281785
            ],
            [
              -80.29228892149786,
              26.060321392636904
            ],
            [
              -80.29233462130723,
              26.060319782486097
            ],
            [
              -80.29332348852516,
              26.06028954776102
            ],
            [
              -80.29324062769135,
              26.058277314996914
            ],
            [
              -80.29421068933227,
              26.058247898937008
            ],
            [
              -80.29426230122442,
              26.059377754411667
            ],
            [
              -80.29427093263193,
              26.059377568234
            ],
            [
              -80.29430245342733,
              26.060259715489146
            ],
            [
              -80.29434155095771,
              26.060258531871014
            ],
            [
              -80.29524486010942,
              26.060230845375617
            ],
            [
              -80.29630506666693,
              26.06019841644754
            ],
            [
              -80.29635076503612,
              26.06019703428431
            ],
            [
              -80.29769760389003,
              26.060155674640626
            ],
            [
              -80.29767869796697,
              26.059494832382143
            ],
            [
              -80.2976526339464,
              26.058587262305654
            ],
            [
              -80.29765099939233,
              26.058520995989998
            ],
            [
              -80.29765000812905,
              26.058474219654787
            ],
            [
              -80.29780281326627,
              26.05847450429709
            ],
            [
              -80.29781804264242,
              26.05847457835729
            ],
            [
              -80.29792160650094,
              26.058474394140838
            ],
            [
              -80.29835108686001,
              26.058474648487916
            ],
            [
              -80.29885392347286,
              26.05847502670304
            ],
            [
              -80.29935650629902,
              26.058475403740637
            ],
            [
              -80.29981365485177,
              26.058475557817435
            ],
            [
              -80.30027080208545,
              26.058475938805405
            ],
            [
              -80.30104980521665,
              26.05847650195896
            ],
            [
              -80.30168361853221,
              26.058477047527496
            ],
            [
              -80.30166916026198,
              26.057961352447
            ],
            [
              -80.30165679006673,
              26.057521785259173
            ],
            [
              -80.30164864828723,
              26.057225302544555
            ],
            [
              -80.30163457514816,
              26.056730473519252
            ],
            [
              -80.30162203690247,
              26.056276460666176
            ],
            [
              -80.30160924352269,
              26.055822677624636
            ],
            [
              -80.30160527718544,
              26.055678218758455
            ],
            [
              -80.30159645020863,
              26.05536889275046
            ],
            [
              -80.30159060860406,
              26.055155416063677
            ],
            [
              -80.30158447106585,
              26.054949045245333
            ],
            [
              -80.30158391211337,
              26.054914881620245
            ],
            [
              -80.30157909363176,
              26.054742906462728
            ],
            [
              -80.30157111890301,
              26.05446109759381
            ],
            [
              -80.30156484990762,
              26.054234091102074
            ],
            [
              -80.30155832067132,
              26.054008001319243
            ],
            [
              -80.3008882367186,
              26.054007510159245
            ],
            [
              -80.30081183750137,
              26.05400736955223
            ],
            [
              -80.30081311549831,
              26.054048643968322
            ],
            [
              -80.30073696770918,
              26.05404873380654
            ],
            [
              -80.3007484698383,
              26.05446307754808
            ],
            [
              -80.3001237256629,
              26.05447770384384
            ],
            [
              -80.30011103785631,
              26.05400695533667
            ],
            [
              -80.2999359035017,
              26.054006794252132
            ],
            [
              -80.29967700563891,
              26.054006914574682
            ],
            [
              -80.29941734807409,
              26.05400657221172
            ],
            [
              -80.29933866455814,
              26.05400641974348
            ],
            [
              -80.29925997967999,
              26.054006496493617
            ],
            [
              -80.29896326402486,
              26.054006201855522
            ],
            [
              -80.29871959636672,
              26.05400616602896
            ],
            [
              -80.29871401147356,
              26.05400613890806
            ],
            [
              -80.29847592909015,
              26.054005899622574
            ],
            [
              -80.29823226182496,
              26.054005632805
            ],
            [
              -80.29798859420987,
              26.054005593939777
            ],
            [
              -80.29772792110312,
              26.05400547377244
            ],
            [
              -80.29769187861488,
              26.054005298494545
            ],
            [
              -80.29767664845028,
              26.054005453694
            ],
            [
              -80.2975235963045,
              26.054005166904194
            ],
            [
              -80.29750810011109,
              26.053453930720533
            ],
            [
              -80.29747018932628,
              26.052107024101222
            ],
            [
              -80.29742450517954,
              26.05048885545042
            ],
            [
              -80.29739478012253,
              26.049429261798
            ],
            [
              -80.29722673181573,
              26.049433716461337
            ],
            [
              -80.29669669114993,
              26.049447414423337
            ],
            [
              -80.29613365011122,
              26.049462096859646
            ],
            [
              -80.29600977039176,
              26.04946561901037
            ],
            [
              -80.29596727223011,
              26.04812442179391
            ],
            [
              -80.29592158365364,
              26.048125116154992
            ],
            [
              -80.2958175048914,
              26.048128046881736
            ],
            [
              -80.29507422139152,
              26.048150100062337
            ],
            [
              -80.29462769469266,
              26.04816305175087
            ],
            [
              -80.2941811665574,
              26.048176231318003
            ],
            [
              -80.29401133828269,
              26.048181362274384
            ],
            [
              -80.2939351857603,
              26.048183052534377
            ],
            [
              -80.29390339279142,
              26.047177327090214
            ],
            [
              -80.29382724016921,
              26.04717947583908
            ],
            [
              -80.29381269661117,
              26.04672614110383
            ],
            [
              -80.29379444398657,
              26.04617191030099
            ],
            [
              -80.29378065647252,
              26.04571949627247
            ],
            [
              -80.29377726159389,
              26.045608513969785
            ],
            [
              -80.2937541884268,
              26.04488460028781
            ],
            [
              -80.29373536745277,
              26.04429803977679
            ],
            [
              -80.29325788679597,
              26.044311982455802
            ],
            [
              -80.2932583109066,
              26.044325740611455
            ],
            [
              -80.29327645197465,
              26.044898312471165
            ],
            [
              -80.29279896786912,
              26.044912253575852
            ],
            [
              -80.29278082912171,
              26.044339681705
            ],
            [
              -80.29278040406224,
              26.044325924446817
            ],
            [
              -80.2923026684732,
              26.044339861813352
            ],
            [
              -80.29182518897981,
              26.04435356958534
            ],
            [
              -80.29182391314261,
              26.044312296901815
            ],
            [
              -80.29167871651312,
              26.04431616944938
            ],
            [
              -80.29137384742796,
              26.044325449773957
            ],
            [
              -80.29137562968185,
              26.0443667267485
            ],
            [
              -80.29137605595011,
              26.044380255648743
            ],
            [
              -80.2914160025486,
              26.045630193817022
            ],
            [
              -80.29103548438496,
              26.045641394026802
            ],
            [
              -80.2910096393523,
              26.044832409072313
            ],
            [
              -80.29051489435822,
              26.044846945706947
            ],
            [
              -80.29050186930075,
              26.044438784840754
            ],
            [
              -80.29050079905136,
              26.044405765003084
            ],
            [
              -80.29050037326438,
              26.044392006836322
            ],
            [
              -80.28962537102554,
              26.044417510326344
            ],
            [
              -80.28803477955938,
              26.044463786567217
            ],
            [
              -80.28780657325555,
              26.044470457608167
            ],
            [
              -80.2878176843779,
              26.044815789747293
            ],
            [
              -80.28804589133976,
              26.04480912050813
            ],
            [
              -80.28963623267627,
              26.044762842990544
            ],
            [
              -80.28966572235765,
              26.045681436009772
            ],
            [
              -80.28807511659576,
              26.045727253811762
            ],
            [
              -80.2878469050795,
              26.045734382483932
            ],
            [
              -80.28785203899287,
              26.04589283274657
            ],
            [
              -80.28786655581656,
              26.04634662617455
            ],
            [
              -80.28793078442705,
              26.04836037583341
            ],
            [
              -80.29194903250604,
              26.048242110902383
            ],
            [
              -80.29210916043634,
              26.053274416293483
            ],
            [
              -80.2880910419585,
              26.053384659170465
            ],
            [
              -80.28809148863347,
              26.053394749145426
            ],
            [
              -80.28810748405836,
              26.05389807119494
            ],
            [
              -80.28812347817468,
              26.05440162337402
            ],
            [
              -80.28813842077827,
              26.054869174431712
            ],
            [
              -80.28815572187092,
              26.055408496913525
            ],
            [
              -80.28826184141528,
              26.055405123339803
            ],
            [
              -80.2921732126894,
              26.055287475600927
            ],
            [
              -80.29218922661532,
              26.05579079743783
            ],
            [
              -80.29220524275726,
              26.05629343144862
            ],
            [
              -80.29223726726786,
              26.057300533470432
            ],
            [
              -80.29188844442932,
              26.057310974499938
            ],
            [
              -80.2911638854222,
              26.05733309752137
            ],
            [
              -80.29043907479486,
              26.057354986398117
            ],
            [
              -80.28971451781035,
              26.0573768728793
            ],
            [
              -80.2889899596494,
              26.05739875571402
            ],
            [
              -80.28821995642501,
              26.05742224504387
            ],
            [
              -80.28823595250878,
              26.057925566823304
            ],
            [
              -80.28825194828336,
              26.058429118737077
            ]
          ]
        ]
      }
    }
  ]
}