{
  "type": "FeatureCollection",
  "features": [
    {
      "type": "Feature",
      "properties": {
        "CITYNAME": "Deerfield Beach",
        "name": "City-wide",
        "schedule_2025": "Weekly bulk pickup",
        "CONTACT": "Deerfield Beach Public Works",
        "PHONE": "(954) 480-4429"
      },
      "geometry": {
        "type": "Polygon",
        "coordinates": [
          [
            [
              -80.09704814403352,
              26.32240123079558
            ],
            [
              -80.0973311263078,
              26.32248760692128
            ],
            [
              -80.09889940490532,
              26.32305593248122
            ],
            [
              -80.09897758357415,
              26.323177240846835
            ],
            [
              -80.09903559680154,
              26.32330736239636
            ],
            [
              -80.09907219388391,
              26.323443539164792
            ],
            [
              -80.09908637494645,
              26.323583472357843
            ],
            [
              -80.09907791389858,
              26.323723493420815
            ],
            [
              -80.09904708457276,
              26.323861080485514
            ],
            [
              -80.0989944187219,
              26.323993257497136
            ],
            [
              -80.09884286027612,
              26.32421513931767
            ],
            [
              -80.09826135206912,
              26.325456785303885
            ],
            [
              -80.0982399230382,
              26.325595806777503
            ],
            [
              -80.09822840707133,
              26.32573580761058
            ],
            [
              -80.0982278273142,
              26.325876336639705
            ],
            [
              -80.09823768214129,
              26.3260164718953
            ],
            [
              -80.09825822574723,
              26.326155986624958
            ],
            [
              -80.09828896281832,
              26.32629327294213
            ],
            [
              -80.0983298916067,
              26.32642856098502
            ],
            [
              -80.09838127010352,
              26.326561392058252
            ],
            [
              -80.09844208964192,
              26.32669061444811
            ],
            [
              -80.09851260818478,
              26.326815772163087
            ],
            [
              -80.09859257492802,
              26.326936403302458
            ],
            [
              -80.09868072324404,
              26.32705181303245
            ],
            [
              -80.09877807249521,
              26.327161778494407
            ],
            [
              -80.09888284826386,
              26.327265600758775
            ],
            [
              -80.09899556265529,
              26.32736259617339
            ],
            [
              -80.09911520088349,
              26.327452527284944
            ],
            [
              -80.09924125692348,
              26.327535162546663
            ],
            [
              -80.09937322529493,
              26.327609811008546
            ],
            [
              -80.09951060174185,
              26.327676010981627
            ],
            [
              -80.09967316875938,
              26.32774168128071
            ],
            [
              -80.10105471395194,
              26.32779322260144
            ],
            [
              -80.10191734029983,
              26.327736502013796
            ],
            [
              -80.10223754604601,
              26.327715582449812
            ],
            [
              -80.12840229470925,
              26.32763129442406
            ],
            [
              -80.1697800184101,
              26.327835797352318
            ],
            [
              -80.16977809507529,
              26.327291489539093
            ],
            [
              -80.16973043682803,
              26.32391356153862
            ],
            [
              -80.16967103122427,
              26.319703286001793
            ],
            [
              -80.1696294959685,
              26.317988330140373
            ],
            [
              -80.16961062204847,
              26.317690287238037
            ],
            [
              -80.16959670609805,
              26.317470571872136
            ],
            [
              -80.16959623282966,
              26.317444944878044
            ],
            [
              -80.16955198519263,
              26.31610125105984
            ],
            [
              -80.16950704644728,
              26.315148113139056
            ],
            [
              -80.16946230126565,
              26.31415666437413
            ],
            [
              -80.16923781229761,
              26.30917058115586
            ],
            [
              -80.16910056763767,
              26.305584320225385
            ],
            [
              -80.16901968603938,
              26.303179050684367
            ],
            [
              -80.16897823982946,
              26.30189134504834
            ],
            [
              -80.1689778870988,
              26.301806979559757
            ],
            [
              -80.16873958409111,
              26.301808089092066
            ],
            [
              -80.16872983718933,
              26.30147794119624
            ],
            [
              -80.16871543724262,
              26.300895037904255
            ],
            [
              -80.16859153382953,
              26.29621022658727
            ],
            [
              -80.16860345596476,
              26.29436899147158
            ],
            [
              -80.16861545383186,
              26.292516963234554
            ],
            [
              -80.16862463446937,
              26.291099320753702
            ],
            [
              -80.16862730559349,
              26.290686514444577
            ],
            [
              -80.16863851231936,
              26.2889553546785
            ],
            [
              -80.16782599905419,
              26.28897119428017
            ],
            [
              -80.16662119248222,
              26.28899646891858
            ],
            [
              -80.16496680922205,
              26.289028769366574
            ],
            [
              -80.16314882251342,
              26.289062277370103
            ],
            [
              -80.16051358823437,
              26.28911352660289
            ],
            [
              -80.1605140030679,
              26.289154790587048
            ],
            [
              -80.15978156107519,
              26.28915350136523
            ],
            [
              -80.15752594198253,
              26.289149515449147
            ],
            [
              -80.15646389314792,
              26.28914762679871
            ],
            [
              -80.15443873948325,
              26.28914676921502
            ],
            [
              -80.15361002882824,
              26.289162363301475
            ],
            [
              -80.15270478439858,
              26.289158500484184
            ],
            [
              -80.1526710777196,
              26.28773779262057
            ],
            [
              -80.15264436847784,
              26.28664513391416
            ],
            [
              -80.15258717025974,
              26.284305292442134
            ],
            [
              -80.15252408353457,
              26.28172446663554
            ],
            [
              -80.15249195490964,
              26.280404282777486
            ],
            [
              -80.15243579767065,
              26.278096771512384
            ],
            [
              -80.15239162932629,
              26.276281775962914
            ],
            [
              -80.15616901386288,
              26.27623238781486
            ],
            [
              -80.15615151062144,
              26.27547324290445
            ],
            [
              -80.15816534128251,
              26.27544776744677
            ],
            [
              -80.15815029439085,
              26.27466329501882
            ],
            [
              -80.15814802228782,
              26.274544861781955
            ],
            [
              -80.15814796116845,
              26.274541677107422
            ],
            [
              -80.15814740879554,
              26.27466333134933
            ],
            [
              -80.15814738118306,
              26.274669378499603
            ],
            [
              -80.15814688559895,
              26.274669380106285
            ],
            [
              -80.15781168978421,
              26.27467362199995
            ],
            [
              -80.15781119416754,
              26.274673628118197
            ],
            [
              -80.15240189862885,
              26.274744292795564
            ],
            [
              -80.1524014030056,
              26.274744299797664
            ],
            [
              -80.15221158253361,
              26.274746811805432
            ],
            [
              -80.15221108691036,
              26.274746818806868
            ],
            [
              -80.15206479488704,
              26.274748755496432
            ],
            [
              -80.15206429925722,
              26.274748763399902
            ],
            [
              -80.1479936873317,
              26.274843600574368
            ],
            [
              -80.14799272092145,
              26.274821567314174
            ],
            [
              -80.14798770148114,
              26.274803420888595
            ],
            [
              -80.14797913394737,
              26.274789387231994
            ],
            [
              -80.14796792014661,
              26.27477785065826
            ],
            [
              -80.14795188649008,
              26.27476799948034
            ],
            [
              -80.14793496735682,
              26.274762323806815
            ],
            [
              -80.14791600405978,
              26.27476018585478
            ],
            [
              -80.14791561754471,
              26.274760195294153
            ],
            [
              -80.14733781916253,
              26.27477408421029
            ],
            [
              -80.1433786174746,
              26.274869157846194
            ],
            [
              -80.14298595580338,
              26.274880784371984
            ],
            [
              -80.14242641906836,
              26.274901580613857
            ],
            [
              -80.14166745690542,
              26.274927000455637
            ],
            [
              -80.13956374883007,
              26.27497572893168
            ],
            [
              -80.13668918674877,
              26.275044029811276
            ],
            [
              -80.13666641541538,
              26.275044575217155
            ],
            [
              -80.13666739820091,
              26.275066135659213
            ],
            [
              -80.1366676479397,
              26.275071622144562
            ],
            [
              -80.1365871550268,
              26.275074587700963
            ],
            [
              -80.1365869246412,
              26.27506635116838
            ],
            [
              -80.13658642901058,
              26.27506635901834
            ],
            [
              -80.13653577465242,
              26.275068231370057
            ],
            [
              -80.13651320333473,
              26.275069075806265
            ],
            [
              -80.13651372734245,
              26.27511420438549
            ],
            [
              -80.13651379640382,
              26.275120159126097
            ],
            [
              -80.13651330081308,
              26.27512016156057
            ],
            [
              -80.1360758017206,
              26.275127394505585
            ],
            [
              -80.13607571565166,
              26.27512739037728
            ],
            [
              -80.13545349975762,
              26.275056975332394
            ],
            [
              -80.13545300416722,
              26.275056977763214
            ],
            [
              -80.13435575474543,
              26.27507333519396
            ],
            [
              -80.13435525915507,
              26.275073337620974
            ],
            [
              -80.13419666742267,
              26.27507260504693
            ],
            [
              -80.13424423713045,
              26.27485621758007
            ],
            [
              -80.13424374154101,
              26.27485622000671
            ],
            [
              -80.1338291296355,
              26.274862402668738
            ],
            [
              -80.13382863401259,
              26.27486240960667
            ],
            [
              -80.13096751284444,
              26.27490149926704
            ],
            [
              -80.13096730361937,
              26.274901497097872
            ],
            [
              -80.12854415993243,
              26.27482140225014
            ],
            [
              -80.12854366434362,
              26.274821404657136
            ],
            [
              -80.12639511888837,
              26.27485323367158
            ],
            [
              -80.12639462326582,
              26.274853240583802
            ],
            [
              -80.12542232639566,
              26.274867677107853
            ],
            [
              -80.12324217965289,
              26.27494497565712
            ],
            [
              -80.12145016951123,
              26.275046016193432
            ],
            [
              -80.1214496739153,
              26.275046019478406
            ],
            [
              -80.11379094578756,
              26.275189481263205
            ],
            [
              -80.11379045015049,
              26.27518948993696
            ],
            [
              -80.11333724276533,
              26.27519647803143
            ],
            [
              -80.11331643530593,
              26.275196804410164
            ],
            [
              -80.113052135455,
              26.27612792836112
            ],
            [
              -80.11252322893583,
              26.277991248179394
            ],
            [
              -80.10920131209085,
              26.28984295176978
            ],
            [
              -80.10804497567823,
              26.29370076248185
            ],
            [
              -80.1080430531539,
              26.29370717595664
            ],
            [
              -80.10804255752114,
              26.293707173778085
            ],
            [
              -80.1071620715395,
              26.293703301389044
            ],
            [
              -80.10716157589304,
              26.293703301012506
            ],
            [
              -80.10635846992379,
              26.293704984867027
            ],
            [
              -80.10633572775203,
              26.29370503456672
            ],
            [
              -80.10634771639113,
              26.294032255300685
            ],
            [
              -80.10635220339458,
              26.294243196728782
            ],
            [
              -80.10634824298496,
              26.29436169716794
            ],
            [
              -80.10634941921138,
              26.294407325995483
            ],
            [
              -80.1063505690782,
              26.29445639346517
            ],
            [
              -80.10635752024913,
              26.29464500881785
            ],
            [
              -80.10637045034187,
              26.29539868887228
            ],
            [
              -80.10637669490191,
              26.295762688837637
            ],
            [
              -80.10637070990121,
              26.29588612996692
            ],
            [
              -80.10635594755956,
              26.295976349546137
            ],
            [
              -80.10633251814782,
              26.2960650692137
            ],
            [
              -80.10628286239786,
              26.29619106246073
            ],
            [
              -80.10623989535443,
              26.296272926301008
            ],
            [
              -80.10595367827831,
              26.29679668906451
            ],
            [
              -80.10590654376782,
              26.296893360615538
            ],
            [
              -80.10586893535624,
              26.296993369664413
            ],
            [
              -80.10584114429001,
              26.29709595445689
            ],
            [
              -80.10582612030811,
              26.2971793470643
            ],
            [
              -80.1058169861631,
              26.297273839221326
            ],
            [
              -80.1057488430812,
              26.297333191935802
            ],
            [
              -80.10574179862947,
              26.29733932704472
            ],
            [
              -80.10550153917566,
              26.29734223292287
            ],
            [
              -80.10547892171016,
              26.297342511601478
            ],
            [
              -80.10547952767772,
              26.297377721158757
            ],
            [
              -80.10547963145912,
              26.297383769950322
            ],
            [
              -80.10547913578336,
              26.29738377137266
            ],
            [
              -80.10498926223079,
              26.297389703096613
            ],
            [
              -80.10498876652039,
              26.297389709029897
            ],
            [
              -80.10407370019448,
              26.297400783598768
            ],
            [
              -80.1040732044841,
              26.297400789528893
            ],
            [
              -80.10365084970871,
              26.297405126468824
            ],
            [
              -80.10365035399138,
              26.2974051333
            ],
            [
              -80.10265875778099,
              26.297424558670727
            ],
            [
              -80.10265826205669,
              26.297424566401016
            ],
            [
              -80.10104956586623,
              26.297457128535186
            ],
            [
              -80.10028807650346,
              26.297472576339562
            ],
            [
              -80.09952129743787,
              26.29748860786579
            ],
            [
              -80.09818106396726,
              26.297516180531506
            ],
            [
              -80.09701396311435,
              26.29754003961632
            ],
            [
              -80.0947813080039,
              26.297642022497907
            ],
            [
              -80.09478081231404,
              26.29764202568829
            ],
            [
              -80.09434912330873,
              26.2976496031955
            ],
            [
              -80.09434862655448,
              26.297649614500827
            ],
            [
              -80.09429672338912,
              26.297650197540165
            ],
            [
              -80.09423084154562,
              26.297651157131995
            ],
            [
              -80.09330849015554,
              26.297665046708516
            ],
            [
              -80.09230716294515,
              26.297695624685208
            ],
            [
              -80.09229547007274,
              26.297237502030246
            ],
            [
              -80.09329657646349,
              26.297202108343285
            ],
            [
              -80.09316032147373,
              26.293988944566618
            ],
            [
              -80.08906238542943,
              26.29410099619646
            ],
            [
              -80.08918664504138,
              26.29776067121512
            ],
            [
              -80.08292447162484,
              26.297893406448587
            ],
            [
              -80.08289312951881,
              26.29699567968248
            ],
            [
              -80.08028829723446,
              26.29704548820441
            ],
            [
              -80.0802372463635,
              26.30064626839631
            ],
            [
              -80.07944036060556,
              26.305284674655084
            ],
            [
              -80.07938210206068,
              26.305285905513806
            ],
            [
              -80.07938103759132,
              26.30529185924392
            ],
            [
              -80.07653696026908,
              26.305337079809256
            ],
            [
              -80.07620727818788,
              26.305341375957237
            ],
            [
              -80.07620801759363,
              26.30534436099877
            ],
            [
              -80.07622220868522,
              26.305768111471433
            ],
            [
              -80.07621949438982,
              26.305789643701925
            ],
            [
              -80.0762124762155,
              26.305808626438562
            ],
            [
              -80.07620934410167,
              26.30581869336523
            ],
            [
              -80.07620514008048,
              26.305835630955656
            ],
            [
              -80.07620246213037,
              26.305852578374623
            ],
            [
              -80.07620054358065,
              26.305869989188963
            ],
            [
              -80.0761996442297,
              26.30588717731524
            ],
            [
              -80.07620052528983,
              26.305904377810865
            ],
            [
              -80.0762019150484,
              26.305921580680224
            ],
            [
              -80.07620288517492,
              26.30592754748678
            ],
            [
              -80.07612994367138,
              26.30652955345792
            ],
            [
              -80.07612686969625,
              26.30653228468456
            ],
            [
              -80.07611151981374,
              26.306543419171113
            ],
            [
              -80.07610122960013,
              26.306558025030633
            ],
            [
              -80.07609195313614,
              26.306573095923753
            ],
            [
              -80.07608419729826,
              26.30658886436802
            ],
            [
              -80.07607745339287,
              26.30660532708685
            ],
            [
              -80.07607274426204,
              26.306621802912503
            ],
            [
              -80.07606879271758,
              26.30663897137467
            ],
            [
              -80.07606687594901,
              26.306656152943958
            ],
            [
              -80.07606623091571,
              26.306673342705224
            ],
            [
              -80.07606711196543,
              26.30669054229697
            ],
            [
              -80.07606976072115,
              26.30670935804107
            ],
            [
              -80.07607345413452,
              26.306724741731124
            ],
            [
              -80.07607866454357,
              26.306741281453974
            ],
            [
              -80.07608564993214,
              26.306758520366888
            ],
            [
              -80.0760937287611,
              26.30683032925249
            ],
            [
              -80.07607469011064,
              26.30698586886535
            ],
            [
              -80.07607314220907,
              26.306988609920822
            ],
            [
              -80.07606209254166,
              26.307002752379184
            ],
            [
              -80.07604926970772,
              26.30701596640539
            ],
            [
              -80.07604430257062,
              26.307032899071142
            ],
            [
              -80.07603984776388,
              26.30704937653264
            ],
            [
              -80.07603564185001,
              26.307066543353873
            ],
            [
              -80.07603194826687,
              26.307083254970955
            ],
            [
              -80.07602850721275,
              26.30710019746682
            ],
            [
              -80.07602451382994,
              26.30712263845735
            ],
            [
              -80.07602263885806,
              26.30713454749324
            ],
            [
              -80.07602046772394,
              26.307151727421815
            ],
            [
              -80.07601829658911,
              26.307168907350317
            ],
            [
              -80.07601663415015,
              26.30718609055578
            ],
            [
              -80.07601548040729,
              26.307203277038234
            ],
            [
              -80.07601458101237,
              26.30722046515917
            ],
            [
              -80.07601393414033,
              26.307237885061625
            ],
            [
              -80.07601375780116,
              26.30726012048625
            ],
            [
              -80.07601391397021,
              26.307272502013507
            ],
            [
              -80.07601479501385,
              26.307289701604063
            ],
            [
              -80.07601541989109,
              26.307307128796506
            ],
            [
              -80.07601680054938,
              26.307325476963932
            ],
            [
              -80.07601767976841,
              26.30734290669737
            ],
            [
              -80.0760175434181,
              26.307360099733604
            ],
            [
              -80.07601715271895,
              26.307377291131218
            ],
            [
              -80.07601546482367,
              26.307397683702856
            ],
            [
              -80.07601382783216,
              26.307411657540925
            ],
            [
              -80.07601063929495,
              26.307428830914326
            ],
            [
              -80.0760071982259,
              26.307445773408546
            ],
            [
              -80.07600274157822,
              26.307462480107873
            ],
            [
              -80.07599257107847,
              26.3074940513891
            ],
            [
              -80.0759827858242,
              26.307509118993703
            ],
            [
              -80.0759752824362,
              26.30752511830708
            ],
            [
              -80.07596981020241,
              26.307541589209993
            ],
            [
              -80.0759666234727,
              26.30755853334138
            ],
            [
              -80.075965722248,
              26.307575950701395
            ],
            [
              -80.0759671119837,
              26.307593153568664
            ],
            [
              -80.07597104702288,
              26.30761014448435
            ],
            [
              -80.07598428573246,
              26.307640719411708
            ],
            [
              -80.07598975050765,
              26.307657261677612
            ],
            [
              -80.07599247927037,
              26.307665989937625
            ],
            [
              -80.07582343835786,
              26.309062884076177
            ],
            [
              -80.07577769417688,
              26.30950665157393
            ],
            [
              -80.07577355078287,
              26.30951579405543
            ],
            [
              -80.07576731899526,
              26.309531801544782
            ],
            [
              -80.07576133791474,
              26.309548270056236
            ],
            [
              -80.07575662496963,
              26.309565204341286
            ],
            [
              -80.07575267690227,
              26.309581914303113
            ],
            [
              -80.075749996964,
              26.309599090941276
            ],
            [
              -80.07574782573204,
              26.309616270857624
            ],
            [
              -80.07574692626743,
              26.309633458969646
            ],
            [
              -80.07574745471355,
              26.309663035897664
            ],
            [
              -80.07574935313924,
              26.309680242040212
            ],
            [
              -80.07575074285789,
              26.309697444904433
            ],
            [
              -80.07575263946575,
              26.309714880287263
            ],
            [
              -80.0757545378928,
              26.309732086429698
            ],
            [
              -80.07541167353486,
              26.313062290528162
            ],
            [
              -80.07539319923576,
              26.313242593635895
            ],
            [
              -80.07538134636819,
              26.313357830962655
            ],
            [
              -80.07528709122327,
              26.3142721696118
            ],
            [
              -80.0752232448586,
              26.315168822514856
            ],
            [
              -80.0752160739038,
              26.31527102262483
            ],
            [
              -80.07516254220407,
              26.31602193767693
            ],
            [
              -80.07514563946295,
              26.316260479874927
            ],
            [
              -80.0748802368624,
              26.31998549348016
            ],
            [
              -80.07486904129715,
              26.320145897471214
            ],
            [
              -80.07481748619166,
              26.320295037854315
            ],
            [
              -80.07481322415936,
              26.32063934646438
            ],
            [
              -80.07482208237376,
              26.320805152625834
            ],
            [
              -80.07482565980877,
              26.320867303830855
            ],
            [
              -80.07482830616789,
              26.320918444042004
            ],
            [
              -80.07687748724754,
              26.320879382770972
            ],
            [
              -80.07914369613792,
              26.320836183274057
            ],
            [
              -80.0805528720313,
              26.320791353614275
            ],
            [
              -80.08268972934773,
              26.320730991535342
            ],
            [
              -80.08354109072943,
              26.320709842645112
            ],
            [
              -80.08524380845128,
              26.320667988147385
            ],
            [
              -80.08646511936098,
              26.320638636075845
            ],
            [
              -80.08773906377425,
              26.320612359507916
            ],
            [
              -80.087957662674,
              26.320667624477487
            ],
            [
              -80.08808416021714,
              26.320789245019697
            ],
            [
              -80.08816028197238,
              26.320911692250522
            ],
            [
              -80.08823359494818,
              26.321035496191346
            ],
            [
              -80.08830409833737,
              26.32116088699594
            ],
            [
              -80.08837204989486,
              26.32128717855042
            ],
            [
              -80.08843719263848,
              26.3214148286314
            ],
            [
              -80.08849927398923,
              26.3215436045794
            ],
            [
              -80.08855880448749,
              26.321673281294018
            ],
            [
              -80.08861552794343,
              26.321804087304535
            ],
            [
              -80.0886691899817,
              26.32193601919204
            ],
            [
              -80.08872004855621,
              26.322068620997396
            ],
            [
              -80.08876810006991,
              26.32220235120497
            ],
            [
              -80.08881309471447,
              26.32233675062782
            ],
            [
              -80.08885477331302,
              26.322472045068633
            ],
            [
              -80.08889390479624,
              26.32260801106682
            ],
            [
              -80.08892972299459,
              26.32274464465809
            ],
            [
              -80.08896324644651,
              26.3228819505118
            ],
            [
              -80.08899294883443,
              26.323019919833317
            ],
            [
              -80.08901985126184,
              26.323158101511083
            ],
            [
              -80.08904369755493,
              26.323296721365775
            ],
            [
              -80.08906448590226,
              26.323436009542018
            ],
            [
              -80.08908221808669,
              26.323575736799956
            ],
            [
              -80.0890968976774,
              26.323715445561383
            ],
            [
              -80.08910877726956,
              26.323855364878934
            ],
            [
              -80.08912204420298,
              26.324110607760872
            ],
            [
              -80.08915149266038,
              26.324248575423034
            ],
            [
              -80.08919241111113,
              26.324383864922236
            ],
            [
              -80.08924429060202,
              26.3245162446667
            ],
            [
              -80.08930713935581,
              26.324644795883696
            ],
            [
              -80.08938070838803,
              26.32476883012415
            ],
            [
              -80.08946398913841,
              26.324887194705724
            ],
            [
              -80.08955698161837,
              26.324999890514796
            ],
            [
              -80.08965918425127,
              26.325105995534145
            ],
            [
              -80.08976984204412,
              26.325204588844755
            ],
            [
              -80.08988844242539,
              26.325295896425526
            ],
            [
              -80.0900142321865,
              26.325378767215014
            ],
            [
              -80.0901464517253,
              26.325452738771638
            ],
            [
              -80.09028484585973,
              26.325518036905247
            ],
            [
              -80.09044489628874,
              26.325579116517456
            ],
            [
              -80.09158461239133,
              26.326101702897635
            ],
            [
              -80.09169834693712,
              26.32619756322643
            ],
            [
              -80.09182619736954,
              26.326277465237265
            ],
            [
              -80.09196562968978,
              26.326340247483365
            ],
            [
              -80.09211360726506,
              26.326383825624124
            ],
            [
              -80.09226682393911,
              26.326408179600243
            ],
            [
              -80.09242248648002,
              26.326412374701043
            ],
            [
              -80.0925767817245,
              26.326396157528112
            ],
            [
              -80.09272741470942,
              26.32636020131669
            ],
            [
              -80.09287082131195,
              26.326304942028205
            ],
            [
              -80.09300368167276,
              26.326231733289667
            ],
            [
              -80.0931236965026,
              26.326141937902662
            ],
            [
              -80.09330130901621,
              26.32594109009839
            ],
            [
              -80.09454620695415,
              26.32517568830961
            ],
            [
              -80.0946619270011,
              26.3250817379088
            ],
            [
              -80.09477310351832,
              26.32498317367316
            ],
            [
              -80.09487998477121,
              26.324880913287412
            ],
            [
              -80.09498231435515,
              26.32477495694757
            ],
            [
              -80.09507958272319,
              26.32466552979679
            ],
            [
              -80.09517255304306,
              26.324552636662013
            ],
            [
              -80.09526020599453,
              26.32443649946867
            ],
            [
              -80.09534279339755,
              26.324317580125538
            ],
            [
              -80.0954200624406,
              26.324195417638894
            ],
            [
              -80.0954920070109,
              26.32407092898849
            ],
            [
              -80.0955583745223,
              26.32394388243403
            ],
            [
              -80.09561916319346,
              26.323814509029738
            ],
            [
              -80.09567411687951,
              26.32368303551709
            ],
            [
              -80.0957508538824,
              26.323465499544056
            ],
            [
              -80.09604137224596,
              26.32290910090717
            ],
            [
              -80.09611179435926,
              26.32278391453859
            ],
            [
              -80.09620425337849,
              26.32267101653054
            ],
            [
              -80.09631693832658,
              26.322574294523317
            ],
            [
              -80.09644576229068,
              26.32249601433605
            ],
            [
              -80.09658765825127,
              26.32243776136818
            ],
            [
              -80.09673802880928,
              26.32240202839625
            ],
            [
              -80.09689330479495,
              26.322389939175803
            ],
            [
              -80.09704814403352,
              26.32240123079558
            ]
          ]
        ]
      }
    }
  ]
}