{
  "type": "FeatureCollection",
  "features": [
    {
      "type": "Feature",
      "properties": {
        "CITYNAME": "Lauderdale Lakes",
        "name": "City-wide",
        "schedule_2025": "Weekly bulk pickup",
        "CONTACT": "Lauderdale Lakes Public Works",
        "PHONE": "(954) 535-2700"
      },
      "geometry": {
        "type": "Polygon",
        "coordinates": [
          [
            [
              -80.19551107145874,
              26.181772692145607
            ],
            [
              -80.19559361564308,
              26.18492342822232
            ],
            [
              -80.1955966461704,
              26.185037158339245
            ],
            [
              -80.19563052554486,
              26.186205999087377
            ],
            [
              -80.19563052380693,
              26.186206106487038
            ],
            [
              -80.19563054158182,
              26.18620672306222
            ],
            [
              -80.19562891469566,
              26.186221615893967
            ],
            [
              -80.19562735490265,
              26.186234022437723
            ],
            [
              -80.19562804025925,
              26.186234010924633
            ],
            [
              -80.1956280892772,
              26.18623401119864
            ],
            [
              -80.19721742354429,
              26.186242847888536
            ],
            [
              -80.19721815883891,
              26.186242848380267
            ],
            [
              -80.19721835052069,
              26.186214879674345
            ],
            [
              -80.19721756039516,
              26.186181861760925
            ],
            [
              -80.19718610931137,
              26.184987012682615
            ],
            [
              -80.19749076649047,
              26.184988477342632
            ],
            [
              -80.19810160439573,
              26.184991424048825
            ],
            [
              -80.20016895542757,
              26.185001727371393
            ],
            [
              -80.20244749230949,
              26.185013159881176
            ],
            [
              -80.20340241565606,
              26.18501763960704
            ],
            [
              -80.20386775030325,
              26.185019777056457
            ],
            [
              -80.20386848559733,
              26.185019776611455
            ],
            [
              -80.20385877186406,
              26.184542401135086
            ],
            [
              -80.2038305932654,
              26.183267323480507
            ],
            [
              -80.20382387275419,
              26.18298484153504
            ],
            [
              -80.20446242874506,
              26.182983324673287
            ],
            [
              -80.20458693743628,
              26.182983094964307
            ],
            [
              -80.20693153946239,
              26.182975401441503
            ],
            [
              -80.20754217466866,
              26.182973501316212
            ],
            [
              -80.20754290997483,
              26.18297349724188
            ],
            [
              -80.20753779243246,
              26.18275337768333
            ],
            [
              -80.20751819312967,
              26.181856857719467
            ],
            [
              -80.20750839495382,
              26.181427167842976
            ],
            [
              -80.2075023807639,
              26.18115179140945
            ],
            [
              -80.20749652296725,
              26.180890860170877
            ],
            [
              -80.20749322702042,
              26.180739529778144
            ],
            [
              -80.20748993108272,
              26.180588198479782
            ],
            [
              -80.20748407385702,
              26.180327037963796
            ],
            [
              -80.20747713487528,
              26.180038129998536
            ],
            [
              -80.20746990196609,
              26.179679983579184
            ],
            [
              -80.20746442003228,
              26.179438769904067
            ],
            [
              -80.20746457395605,
              26.179340882615264
            ],
            [
              -80.20766558659798,
              26.179340630062125
            ],
            [
              -80.20787013565317,
              26.17933946340104
            ],
            [
              -80.20807417445594,
              26.179338752163552
            ],
            [
              -80.20826830318397,
              26.179337986121073
            ],
            [
              -80.20858846383899,
              26.179336766596037
            ],
            [
              -80.20875616371315,
              26.17933654325054
            ],
            [
              -80.20890862356796,
              26.1793355373274
            ],
            [
              -80.20890935887583,
              26.17933552963527
            ],
            [
              -80.2090959086276,
              26.17933244445324
            ],
            [
              -80.20923716879662,
              26.179334371471295
            ],
            [
              -80.20936598067858,
              26.179335996193313
            ],
            [
              -80.20936671604738,
              26.17933597947315
            ],
            [
              -80.20953369862494,
              26.179333244753238
            ],
            [
              -80.20953443393282,
              26.179333237057904
            ],
            [
              -80.20971918712507,
              26.17933266307231
            ],
            [
              -80.2098538583021,
              26.17933202691981
            ],
            [
              -80.2100413804736,
              26.179331451475388
            ],
            [
              -80.21015877273331,
              26.17933094945797
            ],
            [
              -80.21035849225392,
              26.17933021127677
            ],
            [
              -80.21055821232406,
              26.179329243560197
            ],
            [
              -80.21072642041236,
              26.179329019803173
            ],
            [
              -80.21089361627723,
              26.17932833177737
            ],
            [
              -80.2110699579938,
              26.179327693691402
            ],
            [
              -80.21122292289083,
              26.179327156534924
            ],
            [
              -80.2113753796327,
              26.179326616431368
            ],
            [
              -80.21154308366975,
              26.179325930435287
            ],
            [
              -80.21169579449722,
              26.179325391384154
            ],
            [
              -80.21183275241944,
              26.17932476590423
            ],
            [
              -80.21200960177464,
              26.179324358707692
            ],
            [
              -80.21217730636653,
              26.17932344271413
            ],
            [
              -80.21232391776489,
              26.179323098869663
            ],
            [
              -80.2124822198915,
              26.179322360322963
            ],
            [
              -80.21263467765894,
              26.17932181889054
            ],
            [
              -80.21277239321387,
              26.179321884444466
            ],
            [
              -80.21293959220287,
              26.179320735535565
            ],
            [
              -80.21310704273334,
              26.179319817068826
            ],
            [
              -80.21325949797348,
              26.17931950422166
            ],
            [
              -80.21341551186583,
              26.179318981400865
            ],
            [
              -80.21354942186635,
              26.179318337628843
            ],
            [
              -80.21370162457562,
              26.179317793672023
            ],
            [
              -80.21385408136727,
              26.179317250942038
            ],
            [
              -80.21399129186726,
              26.179316854048075
            ],
            [
              -80.2141681428146,
              26.179316214945615
            ],
            [
              -80.21432059961582,
              26.17931567172131
            ],
            [
              -80.21447305895735,
              26.179314899088055
            ],
            [
              -80.21464025236475,
              26.17931443595585
            ],
            [
              -80.21479321733405,
              26.179313895003663
            ],
            [
              -80.21495101235008,
              26.179313150973726
            ],
            [
              -80.21512862455721,
              26.17931251484297
            ],
            [
              -80.21530547145987,
              26.17931233284294
            ],
            [
              -80.21545793235465,
              26.17931132991312
            ],
            [
              -80.21561038918159,
              26.179310785322144
            ],
            [
              -80.21577809230854,
              26.179310094384324
            ],
            [
              -80.21593054914185,
              26.179309549454132
            ],
            [
              -80.21610740013398,
              26.179308907968043
            ],
            [
              -80.21627484919203,
              26.179308215067312
            ],
            [
              -80.2164273060352,
              26.179307669610758
            ],
            [
              -80.21659501017969,
              26.179306977726185
            ],
            [
              -80.21676270872995,
              26.179306973399676
            ],
            [
              -80.2169329557406,
              26.179305836436853
            ],
            [
              -80.21712759384893,
              26.179305061211238
            ],
            [
              -80.21746401442634,
              26.179304139640667
            ],
            [
              -80.2181523611288,
              26.17930123206539
            ],
            [
              -80.21878099308388,
              26.179298914122523
            ],
            [
              -80.21899697444739,
              26.179298022956143
            ],
            [
              -80.21920127070278,
              26.17929728650345
            ],
            [
              -80.21925369409989,
              26.179093997583617
            ],
            [
              -80.21935497410402,
              26.17868967036371
            ],
            [
              -80.21940290907754,
              26.178473966069056
            ],
            [
              -80.21944577095958,
              26.178257087026694
            ],
            [
              -80.21950486026235,
              26.17793070897931
            ],
            [
              -80.21956920478931,
              26.177578223573864
            ],
            [
              -80.21959671269236,
              26.177415597071036
            ],
            [
              -80.21964400983356,
              26.177104744758893
            ],
            [
              -80.2196787722365,
              26.17684472141641
            ],
            [
              -80.21972183054012,
              26.176521695205793
            ],
            [
              -80.21974269540581,
              26.176364534908082
            ],
            [
              -80.2197777266673,
              26.1761022194474
            ],
            [
              -80.21980023943033,
              26.175926497877416
            ],
            [
              -80.21982431093899,
              26.175707453411814
            ],
            [
              -80.21985489980652,
              26.175349053229457
            ],
            [
              -80.21987265138542,
              26.175048816787285
            ],
            [
              -80.21988298015074,
              26.17471873519157
            ],
            [
              -80.21988173647593,
              26.174103847956328
            ],
            [
              -80.21987775234264,
              26.173786298135013
            ],
            [
              -80.21986966733884,
              26.173130564272363
            ],
            [
              -80.21985531235761,
              26.17196629400873
            ],
            [
              -80.21983491024335,
              26.170947113449053
            ],
            [
              -80.21981571065247,
              26.170052657648522
            ],
            [
              -80.21978850182074,
              26.168834669090582
            ],
            [
              -80.21977325221366,
              26.168148404148873
            ],
            [
              -80.2197609773454,
              26.16758779163724
            ],
            [
              -80.2197373043498,
              26.16652572079341
            ],
            [
              -80.21971933590088,
              26.165713576145986
            ],
            [
              -80.21969217970323,
              26.164487792264474
            ],
            [
              -80.21966286238695,
              26.163166852767198
            ],
            [
              -80.21963707909495,
              26.162002060497812
            ],
            [
              -80.21962388593269,
              26.161388482127865
            ],
            [
              -80.21960495238179,
              26.160378020047492
            ],
            [
              -80.21958112368132,
              26.159110298370937
            ],
            [
              -80.21956199478501,
              26.158090893703513
            ],
            [
              -80.21953342596657,
              26.156581274399368
            ],
            [
              -80.21952096806642,
              26.15601011397268
            ],
            [
              -80.21951339725962,
              26.155697129190816
            ],
            [
              -80.21903808719414,
              26.155697991404338
            ],
            [
              -80.21693511934518,
              26.155703996029768
            ],
            [
              -80.21538063015278,
              26.155708603214602
            ],
            [
              -80.2148197026861,
              26.155710360588266
            ],
            [
              -80.2143685231027,
              26.15571156820631
            ],
            [
              -80.21391759296834,
              26.15571346355785
            ],
            [
              -80.21332085072905,
              26.15571456107367
            ],
            [
              -80.2130032961657,
              26.155715577228477
            ],
            [
              -80.21300501636054,
              26.155799955024303
            ],
            [
              -80.2130093128874,
              26.15599255943575
            ],
            [
              -80.2130133553965,
              26.15618516155148
            ],
            [
              -80.21301765193348,
              26.156377765953092
            ],
            [
              -80.21302169445185,
              26.15657036805903
            ],
            [
              -80.21302656850871,
              26.156790486133698
            ],
            [
              -80.21312116504919,
              26.161168767048494
            ],
            [
              -80.20398660737332,
              26.16119903067897
            ],
            [
              -80.20305934766519,
              26.161195965037017
            ],
            [
              -80.20291414303553,
              26.15426434219366
            ],
            [
              -80.20288358783199,
              26.152816841458495
            ],
            [
              -80.2028372052419,
              26.15059572190688
            ],
            [
              -80.19904153074674,
              26.1506347311549
            ],
            [
              -80.19882153079367,
              26.150636717253008
            ],
            [
              -80.1928613905648,
              26.150697667558045
            ],
            [
              -80.19286101854763,
              26.150697664570707
            ],
            [
              -80.19287062756192,
              26.15141737085747
            ],
            [
              -80.1928853050963,
              26.152516481583916
            ],
            [
              -80.19288512707612,
              26.15251648148889
            ],
            [
              -80.19288440195723,
              26.15251648645141
            ],
            [
              -80.19288422392464,
              26.152516488161538
            ],
            [
              -80.19288418491537,
              26.15251648884556
            ],
            [
              -80.19089826357245,
              26.152535842447644
            ],
            [
              -80.19089808553987,
              26.152535844155324
            ],
            [
              -80.1907215310647,
              26.152537563632936
            ],
            [
              -80.18691077338104,
              26.15257462371588
            ],
            [
              -80.18691551047169,
              26.15348243067025
            ],
            [
              -80.18692201983836,
              26.154730004322793
            ],
            [
              -80.18692834715284,
              26.155943496271867
            ],
            [
              -80.18693153934667,
              26.15655513037669
            ],
            [
              -80.18693918594103,
              26.158021469136607
            ],
            [
              -80.18693900790021,
              26.158021470839188
            ],
            [
              -80.1849133787963,
              26.15806498283012
            ],
            [
              -80.1849135103825,
              26.158070082373538
            ],
            [
              -80.18491591131651,
              26.158161244321587
            ],
            [
              -80.18491573327555,
              26.158161246021656
            ],
            [
              -80.18491531014759,
              26.15816125445792
            ],
            [
              -80.18491513209406,
              26.158161257963126
            ],
            [
              -80.18493186949617,
              26.15923114536737
            ],
            [
              -80.18494159342782,
              26.159877260215303
            ],
            [
              -80.18494159965206,
              26.159878091546755
            ],
            [
              -80.18371184180074,
              26.159903451385258
            ],
            [
              -80.18291937497256,
              26.159919589474008
            ],
            [
              -80.18294063835853,
              26.16120457496418
            ],
            [
              -80.18294477047598,
              26.16145013755956
            ],
            [
              -80.18294942670657,
              26.161729862968507
            ],
            [
              -80.18369236877011,
              26.16171550662661
            ],
            [
              -80.18491196972437,
              26.161692153154096
            ],
            [
              -80.18621745269255,
              26.161666981227015
            ],
            [
              -80.18655538382282,
              26.161660408036372
            ],
            [
              -80.18682725299846,
              26.161655295076866
            ],
            [
              -80.18686206591684,
              26.16165411701188
            ],
            [
              -80.1869885965779,
              26.16165207945936
            ],
            [
              -80.18703435202548,
              26.164982816880045
            ],
            [
              -80.18703836257436,
              26.165283630543126
            ],
            [
              -80.18795246618848,
              26.16528305667193
            ],
            [
              -80.1890489886083,
              26.165281671400404
            ],
            [
              -80.18952763478941,
              26.16528161635029
            ],
            [
              -80.19005430290048,
              26.16528068175502
            ],
            [
              -80.19007229266343,
              26.166354184930196
            ],
            [
              -80.19011655799949,
              26.168991626184244
            ],
            [
              -80.18911272788733,
              26.1689955611214
            ],
            [
              -80.18911272100827,
              26.1689959771818
            ],
            [
              -80.18911190831348,
              26.169041451971815
            ],
            [
              -80.18911190043417,
              26.169041868026607
            ],
            [
              -80.18911189255486,
              26.169042284081385
            ],
            [
              -80.18911149884696,
              26.16906391721488
            ],
            [
              -80.18914413134945,
              26.17103047346924
            ],
            [
              -80.18917190342758,
              26.17270859200665
            ],
            [
              -80.18917387786624,
              26.17282529677094
            ],
            [
              -80.18716012604884,
              26.17285818696547
            ],
            [
              -80.18697742569186,
              26.17286128187262
            ],
            [
              -80.18598159630098,
              26.172877433693376
            ],
            [
              -80.18549854718572,
              26.17288524724201
            ],
            [
              -80.18310616966014,
              26.172924191162995
            ],
            [
              -80.18303879143636,
              26.172926016539016
            ],
            [
              -80.18303879153684,
              26.17292643263816
            ],
            [
              -80.18303917922456,
              26.1736407099445
            ],
            [
              -80.18303918032522,
              26.173641126049247
            ],
            [
              -80.18303918442668,
              26.17364154217107
            ],
            [
              -80.18312908850467,
              26.18049817852846
            ],
            [
              -80.18620619424487,
              26.18044958504106
            ],
            [
              -80.18620417631323,
              26.180340589263423
            ],
            [
              -80.18620416808876,
              26.180339757020246
            ],
            [
              -80.18619500919475,
              26.17953950024942
            ],
            [
              -80.1861950050825,
              26.1795390841278
            ],
            [
              -80.1910332430986,
              26.179481805865883
            ],
            [
              -80.19331361409272,
              26.179455631145082
            ],
            [
              -80.19332502334645,
              26.180123531890228
            ],
            [
              -80.1933289621344,
              26.180363361358765
            ],
            [
              -80.1952751958035,
              26.180341014123236
            ],
            [
              -80.1954734030912,
              26.18033868335535
            ],
            [
              -80.19551107145874,
              26.181772692145607
            ]
          ]
        ]
      }
    }
  ]
}