{
  "type": "FeatureCollection",
  "features": [
    {
      "type": "Feature",
      "properties": {
        "CITYNAME": "Lauderhill",
        "name": "City-wide",
        "schedule_2025": "Weekly bulk pickup",
        "CONTACT": "Lauderhill Public Works",
        "PHONE": "(954) 730-3000"
      },
      "geometry": {
        "type": "Polygon",
        "coordinates": [
          [
            [
              -80.2165546907181,
              26.13753812271578
            ],
            [
              -80.21618287285172,
              26.135998592116614
            ],
            [
              -80.21519235552799,
              26.13600152352247
            ],
            [
              -80.21519305679324,
              26.136276414139104
            ],
            [
              -80.2156948797672,
              26.13643940110013
            ],
            [
              -80.21577794871614,
              26.137540316539084
            ],
            [
              -80.21405707360258,
              26.13754538348431
            ],
            [
              -80.20739685639218,
              26.137563693688694
            ],
            [
              -80.20739413798586,
              26.13743964691513
            ],
            [
              -80.20666279254979,
              26.13745212975704
            ],
            [
              -80.20556641028597,
              26.137470848302335
            ],
            [
              -80.20541349080791,
              26.13747275712864
            ],
            [
              -80.20540747467628,
              26.137198296122317
            ],
            [
              -80.20491999555706,
              26.137206840847725
            ],
            [
              -80.20492575345457,
              26.13748175895367
            ],
            [
              -80.20358398019344,
              26.137504611298326
            ],
            [
              -80.2035865521106,
              26.13757477974516
            ],
            [
              -80.20282726360614,
              26.13758777552064
            ],
            [
              -80.20256434432451,
              26.137592281452317
            ],
            [
              -80.20256393913384,
              26.13757714790751
            ],
            [
              -80.20252597774208,
              26.13576209475371
            ],
            [
              -80.20160204183904,
              26.135785406792245
            ],
            [
              -80.20152471353295,
              26.13374820923592
            ],
            [
              -80.20177492576,
              26.133743404494968
            ],
            [
              -80.20176662687325,
              26.133544588151906
            ],
            [
              -80.20167184331162,
              26.131160418548077
            ],
            [
              -80.20161651754074,
              26.12995877466524
            ],
            [
              -80.20161318336663,
              26.129888831173623
            ],
            [
              -80.20157106703226,
              26.129023130573074
            ],
            [
              -80.20146742634053,
              26.12641102264433
            ],
            [
              -80.20145697039833,
              26.12634264449815
            ],
            [
              -80.20144676998962,
              26.1262740385041
            ],
            [
              -80.20138159292911,
              26.124631469226685
            ],
            [
              -80.20125842462942,
              26.124634117351892
            ],
            [
              -80.20124094924479,
              26.12416133624798
            ],
            [
              -80.20121793234715,
              26.123586266991182
            ],
            [
              -80.20113164593482,
              26.123577076811234
            ],
            [
              -80.20103244823466,
              26.1235618541867
            ],
            [
              -80.20092112609444,
              26.12353693525277
            ],
            [
              -80.2008113698646,
              26.12350583482741
            ],
            [
              -80.20069179571287,
              26.123461841173796
            ],
            [
              -80.20055077357941,
              26.123397553363272
            ],
            [
              -80.20046474329382,
              26.123350764250635
            ],
            [
              -80.20039393489562,
              26.123306353058457
            ],
            [
              -80.20030370352382,
              26.123242346759344
            ],
            [
              -80.20023878465057,
              26.123190861029386
            ],
            [
              -80.19973506973368,
              26.122757967916545
            ],
            [
              -80.19905388331831,
              26.12216933486216
            ],
            [
              -80.19897896217391,
              26.122095096009907
            ],
            [
              -80.19891495021518,
              26.122022522585304
            ],
            [
              -80.19885478361451,
              26.121944696564682
            ],
            [
              -80.1988085178833,
              26.12187657771241
            ],
            [
              -80.19878942378172,
              26.121846208929977
            ],
            [
              -80.1986537842413,
              26.12184958166108
            ],
            [
              -80.19844398233226,
              26.121853688198737
            ],
            [
              -80.19799719347239,
              26.1218633539438
            ],
            [
              -80.1972622983165,
              26.121879984408718
            ],
            [
              -80.1972440098783,
              26.121200660892562
            ],
            [
              -80.19724218115056,
              26.121063124808245
            ],
            [
              -80.19403459620818,
              26.121133552714095
            ],
            [
              -80.19403441820461,
              26.1211335571345
            ],
            [
              -80.19010882902033,
              26.121224555851914
            ],
            [
              -80.19010865101662,
              26.12122456026746
            ],
            [
              -80.18814611346254,
              26.12127006245021
            ],
            [
              -80.18814593545873,
              26.121270066863318
            ],
            [
              -80.18619548429709,
              26.12131526031424
            ],
            [
              -80.18619907842283,
              26.121452708788663
            ],
            [
              -80.18619890043125,
              26.121452711394216
            ],
            [
              -80.1861979063929,
              26.12145273827607
            ],
            [
              -80.18622985651572,
              26.123104886330285
            ],
            [
              -80.18623063480118,
              26.123145240843325
            ],
            [
              -80.18627717802856,
              26.124920550302704
            ],
            [
              -80.18627857781122,
              26.124973957293168
            ],
            [
              -80.18632235424816,
              26.126646902398374
            ],
            [
              -80.18632318765118,
              26.126679159924908
            ],
            [
              -80.18635006729652,
              26.12771794397864
            ],
            [
              -80.18637869915005,
              26.12863186768516
            ],
            [
              -80.18643441689593,
              26.130463148574602
            ],
            [
              -80.18643686547084,
              26.130537366505155
            ],
            [
              -80.18656666894881,
              26.13574535091812
            ],
            [
              -80.1865788064059,
              26.136285859550505
            ],
            [
              -80.18659459515571,
              26.136988968643916
            ],
            [
              -80.18665309085002,
              26.139800241679882
            ],
            [
              -80.18668661428833,
              26.141619013538858
            ],
            [
              -80.18685238566135,
              26.14161402728846
            ],
            [
              -80.18685241966706,
              26.141614026577773
            ],
            [
              -80.18685259768922,
              26.141614023972153
            ],
            [
              -80.18686582700528,
              26.142248975116157
            ],
            [
              -80.18688073377119,
              26.142964271953925
            ],
            [
              -80.18688646229332,
              26.143239333170374
            ],
            [
              -80.18689726455635,
              26.143720719484104
            ],
            [
              -80.18689757772482,
              26.14373397599173
            ],
            [
              -80.18691848257961,
              26.144622377234896
            ],
            [
              -80.18692649784424,
              26.14496288466304
            ],
            [
              -80.18694688628813,
              26.145829281879756
            ],
            [
              -80.18695515319791,
              26.14618067697728
            ],
            [
              -80.1869656952027,
              26.14662878624722
            ],
            [
              -80.18696683750186,
              26.146638279961714
            ],
            [
              -80.18696978113839,
              26.14664745349022
            ],
            [
              -80.18697443803015,
              26.14665602923615
            ],
            [
              -80.18698066895598,
              26.146663749171534
            ],
            [
              -80.18698828351799,
              26.146670380252452
            ],
            [
              -80.18699705507956,
              26.146675723529285
            ],
            [
              -80.18700671774643,
              26.146679616837794
            ],
            [
              -80.18701698027333,
              26.14668194841635
            ],
            [
              -80.18702735726575,
              26.14668262616766
            ],
            [
              -80.18702753523307,
              26.146682632587705
            ],
            [
              -80.18703158175113,
              26.146820157165248
            ],
            [
              -80.18702201750183,
              26.1468209660762
            ],
            [
              -80.18701271294242,
              26.146823121331582
            ],
            [
              -80.18700389845432,
              26.14682657007551
            ],
            [
              -80.18699579366265,
              26.14683122418984
            ],
            [
              -80.18698860036712,
              26.146836970183013
            ],
            [
              -80.18698249556705,
              26.14684366554015
            ],
            [
              -80.18697763243627,
              26.14685114233903
            ],
            [
              -80.18697413126031,
              26.146859216224954
            ],
            [
              -80.18697207844271,
              26.14686768550245
            ],
            [
              -80.18697152443605,
              26.146876341052337
            ],
            [
              -80.18697669582001,
              26.147096012515824
            ],
            [
              -80.18697651780204,
              26.147096013316283
            ],
            [
              -80.18697234012348,
              26.14709606916594
            ],
            [
              -80.18697381438118,
              26.147811351104796
            ],
            [
              -80.18697478940297,
              26.14782218333741
            ],
            [
              -80.18697764442683,
              26.14783274727671
            ],
            [
              -80.18698230931429,
              26.147842773550856
            ],
            [
              -80.18698866679365,
              26.14785201147661
            ],
            [
              -80.1869965574602,
              26.147860229087563
            ],
            [
              -80.18700578472006,
              26.147867221285452
            ],
            [
              -80.18701611776521,
              26.147872813467522
            ],
            [
              -80.18702729854262,
              26.147876866078754
            ],
            [
              -80.18703904670427,
              26.147879281860703
            ],
            [
              -80.18705089274494,
              26.147879984150013
            ],
            [
              -80.18697396111907,
              26.147880957106526
            ],
            [
              -80.1869743013838,
              26.14804603437809
            ],
            [
              -80.18697492727185,
              26.1483494336299
            ],
            [
              -80.1869801518657,
              26.148927145560894
            ],
            [
              -80.18701882217053,
              26.150566701722777
            ],
            [
              -80.187126199532,
              26.150659991570286
            ],
            [
              -80.18712667969737,
              26.150660407672433
            ],
            [
              -80.18888563959389,
              26.150642413550973
            ],
            [
              -80.18888554284887,
              26.150637890962894
            ],
            [
              -80.1888855397597,
              26.15063775916541
            ],
            [
              -80.18888534465644,
              26.150628658018753
            ],
            [
              -80.18888552267984,
              26.15062865721605
            ],
            [
              -80.19267145017612,
              26.150589849362905
            ],
            [
              -80.19267162820577,
              26.150589847652967
            ],
            [
              -80.1927268166516,
              26.150589280551735
            ],
            [
              -80.19283369494809,
              26.15058818173854
            ],
            [
              -80.19285937534461,
              26.150587917672024
            ],
            [
              -80.19285955336807,
              26.150587916864424
            ],
            [
              -80.19286101854763,
              26.150697664570707
            ],
            [
              -80.1928613905648,
              26.150697667558045
            ],
            [
              -80.19882153079367,
              26.150636717253008
            ],
            [
              -80.19904153074674,
              26.1506347311549
            ],
            [
              -80.2028372052419,
              26.15059572190688
            ],
            [
              -80.20288358783199,
              26.152816841458495
            ],
            [
              -80.20291414303553,
              26.15426434219366
            ],
            [
              -80.20305934766519,
              26.161195965037017
            ],
            [
              -80.20398660737332,
              26.16119903067897
            ],
            [
              -80.21312116504919,
              26.161168767048494
            ],
            [
              -80.21302656850871,
              26.156790486133698
            ],
            [
              -80.21302169445185,
              26.15657036805903
            ],
            [
              -80.21301765193348,
              26.156377765953092
            ],
            [
              -80.2130133553965,
              26.15618516155148
            ],
            [
              -80.2130093128874,
              26.15599255943575
            ],
            [
              -80.21300501636054,
              26.155799955024303
            ],
            [
              -80.2130032961657,
              26.155715577228477
            ],
            [
              -80.21332085072905,
              26.15571456107367
            ],
            [
              -80.21391759296834,
              26.15571346355785
            ],
            [
              -80.2143685231027,
              26.15571156820631
            ],
            [
              -80.2148197026861,
              26.155710360588266
            ],
            [
              -80.21538063015278,
              26.155708603214602
            ],
            [
              -80.21693511934518,
              26.155703996029768
            ],
            [
              -80.21903808719414,
              26.155697991404338
            ],
            [
              -80.21951339725962,
              26.155697129190816
            ],
            [
              -80.21952096806642,
              26.15601011397268
            ],
            [
              -80.21953342596657,
              26.156581274399368
            ],
            [
              -80.21956199478501,
              26.158090893703513
            ],
            [
              -80.21958112368132,
              26.159110298370937
            ],
            [
              -80.21960495238179,
              26.160378020047492
            ],
            [
              -80.21962388593269,
              26.161388482127865
            ],
            [
              -80.21963707909495,
              26.162002060497812
            ],
            [
              -80.21966286238695,
              26.163166852767198
            ],
            [
              -80.21969217970323,
              26.164487792264474
            ],
            [
              -80.21971933590088,
              26.165713576145986
            ],
            [
              -80.2197373043498,
              26.16652572079341
            ],
            [
              -80.2197609773454,
              26.16758779163724
            ],
            [
              -80.21977325221366,
              26.168148404148873
            ],
            [
              -80.21978850182074,
              26.168834669090582
            ],
            [
              -80.21981571065247,
              26.170052657648522
            ],
            [
              -80.21983491024335,
              26.170947113449053
            ],
            [
              -80.21985531235761,
              26.17196629400873
            ],
            [
              -80.21986966733884,
              26.173130564272363
            ],
            [
              -80.21987775234264,
              26.173786298135013
            ],
            [
              -80.21988173647593,
              26.174103847956328
            ],
            [
              -80.21988298015074,
              26.17471873519157
            ],
            [
              -80.21987265138542,
              26.175048816787285
            ],
            [
              -80.21985489980652,
              26.175349053229457
            ],
            [
              -80.21982431093899,
              26.175707453411814
            ],
            [
              -80.21980023943033,
              26.175926497877416
            ],
            [
              -80.2197777266673,
              26.1761022194474
            ],
            [
              -80.21974269540581,
              26.176364534908082
            ],
            [
              -80.21972183054012,
              26.176521695205793
            ],
            [
              -80.2196787722365,
              26.17684472141641
            ],
            [
              -80.21964400983356,
              26.177104744758893
            ],
            [
              -80.21959671269236,
              26.177415597071036
            ],
            [
              -80.21956920478931,
              26.177578223573864
            ],
            [
              -80.21950486026235,
              26.17793070897931
            ],
            [
              -80.21944577095958,
              26.178257087026694
            ],
            [
              -80.21940290907754,
              26.178473966069056
            ],
            [
              -80.21935497410402,
              26.17868967036371
            ],
            [
              -80.21925369409989,
              26.179093997583617
            ],
            [
              -80.21920127070278,
              26.17929728650345
            ],
            [
              -80.21920200298018,
              26.179297283255313
            ],
            [
              -80.2197114894231,
              26.17929570844374
            ],
            [
              -80.21969067973032,
              26.179406328893354
            ],
            [
              -80.22182175081531,
              26.179402965149293
            ],
            [
              -80.2259985162004,
              26.179397059418406
            ],
            [
              -80.22968463062338,
              26.17939184611474
            ],
            [
              -80.23550487014742,
              26.17938344675761
            ],
            [
              -80.23564106489482,
              26.17938302382337
            ],
            [
              -80.23564917013998,
              26.179737506753956
            ],
            [
              -80.2356566582249,
              26.180069747982053
            ],
            [
              -80.23565992476996,
              26.180231165733687
            ],
            [
              -80.23566239498945,
              26.18031990322071
            ],
            [
              -80.23567013419671,
              26.180652604280482
            ],
            [
              -80.23567801683579,
              26.181002271468607
            ],
            [
              -80.23567999983827,
              26.181087796692225
            ],
            [
              -80.23568707404311,
              26.181405592162776
            ],
            [
              -80.23569241037008,
              26.181639238373965
            ],
            [
              -80.23569816364822,
              26.181886871767166
            ],
            [
              -80.23570270049909,
              26.18208727164791
            ],
            [
              -80.23580371886399,
              26.18654489600036
            ],
            [
              -80.23582061618806,
              26.187265557161755
            ],
            [
              -80.23595551422663,
              26.19319132283543
            ],
            [
              -80.23596973114624,
              26.193816595428117
            ],
            [
              -80.24000904154445,
              26.19380887377668
            ],
            [
              -80.24237773616787,
              26.19380463091681
            ],
            [
              -80.24397693997079,
              26.193802039002033
            ],
            [
              -80.24721804414355,
              26.193796337455545
            ],
            [
              -80.25019231825023,
              26.193791235823156
            ],
            [
              -80.25202633415286,
              26.193788402427362
            ],
            [
              -80.2662878041177,
              26.19376669710608
            ],
            [
              -80.26799501323468,
              26.193764388909294
            ],
            [
              -80.26817340736251,
              26.19376413932327
            ],
            [
              -80.26802366725937,
              26.187065695637504
            ],
            [
              -80.26801907368518,
              26.186865524975627
            ],
            [
              -80.26784715324021,
              26.179163236269595
            ],
            [
              -80.25595418022431,
              26.179205413135865
            ],
            [
              -80.25174355572804,
              26.1792200375994
            ],
            [
              -80.25153661063284,
              26.169251977777524
            ],
            [
              -80.25144232729197,
              26.164719638649782
            ],
            [
              -80.23534905100865,
              26.164749243709554
            ],
            [
              -80.2313211466177,
              26.164759204898317
            ],
            [
              -80.2312306705717,
              26.160695268071336
            ],
            [
              -80.23103698216298,
              26.151992328164372
            ],
            [
              -80.23099455202909,
              26.150210725999553
            ],
            [
              -80.22697095414631,
              26.150221514887882
            ],
            [
              -80.22683070415528,
              26.14328646836456
            ],
            [
              -80.22671358225128,
              26.137506798482043
            ],
            [
              -80.224105720081,
              26.137515017366866
            ],
            [
              -80.22407399472209,
              26.135974197058587
            ],
            [
              -80.223205310579,
              26.13597708229228
            ],
            [
              -80.22323575709393,
              26.13751766734174
            ],
            [
              -80.22302239294727,
              26.13751835013882
            ],
            [
              -80.22302428490369,
              26.13761625648049
            ],
            [
              -80.22302398142217,
              26.13766210741344
            ],
            [
              -80.22301724871137,
              26.13768155844914
            ],
            [
              -80.22300367496857,
              26.13769845070215
            ],
            [
              -80.22298173473591,
              26.137713005206862
            ],
            [
              -80.22295629175554,
              26.137719516618475
            ],
            [
              -80.22289227572065,
              26.137720776207928
            ],
            [
              -80.2227048029817,
              26.137723891699796
            ],
            [
              -80.22132111088825,
              26.13774782943885
            ],
            [
              -80.22034361051634,
              26.137764552623704
            ],
            [
              -80.2201863650247,
              26.137767599132527
            ],
            [
              -80.2201719003207,
              26.137765457481265
            ],
            [
              -80.22016201247698,
              26.137762882074725
            ],
            [
              -80.22014935007007,
              26.1377570819719
            ],
            [
              -80.22014074792934,
              26.137751991632538
            ],
            [
              -80.22013569707481,
              26.13774760830243
            ],
            [
              -80.22012686988411,
              26.13773816075195
            ],
            [
              -80.2201208365802,
              26.13772872832329
            ],
            [
              -80.22011608236356,
              26.13771792724121
            ],
            [
              -80.21996112588813,
              26.137720527369368
            ],
            [
              -80.21965629272141,
              26.13772575463682
            ],
            [
              -80.21962345377078,
              26.136153654752885
            ],
            [
              -80.21938023339936,
              26.136161608900718
            ],
            [
              -80.21940842226273,
              26.13752976793427
            ],
            [
              -80.21866141841123,
              26.137532326155473
            ],
            [
              -80.21872627430507,
              26.140739961309187
            ],
            [
              -80.21732316248193,
              26.14007596428391
            ],
            [
              -80.21684014773675,
              26.138072612712683
            ],
            [
              -80.21669123495624,
              26.138101860998574
            ],
            [
              -80.2165546907181,
              26.13753812271578
            ]
          ]
        ]
      }
    }
  ]
}