{
  "type": "FeatureCollection",
  "features": [
    {
      "type": "Feature",
      "properties": {
        "CITYNAME": "Margate",
        "name": "City-wide",
        "schedule_2025": "Weekly bulk pickup",
        "CONTACT": "Margate Public Works",
        "PHONE": "(954) 972-6454"
      },
      "geometry": {
        "type": "Polygon",
        "coordinates": [
          [
            [
              -80.19254995401154,
              26.27211478661582
            ],
            [
              -80.19255112354861,
              26.273909370069493
            ],
            [
              -80.19338206413639,
              26.273922753069336
            ],
            [
              -80.19430302466637,
              26.273936177089983
            ],
            [
              -80.19477469197516,
              26.273943179343096
            ],
            [
              -80.19667281246917,
              26.27396986049529
            ],
            [
              -80.19769370797495,
              26.273983822854216
            ],
            [
              -80.20161590698294,
              26.274040750273688
            ],
            [
              -80.2015882036489,
              26.271752220641545
            ],
            [
              -80.20182905459295,
              26.271754400174167
            ],
            [
              -80.22261427414699,
              26.27203704433289
            ],
            [
              -80.22272340199493,
              26.272014773415677
            ],
            [
              -80.22273316273665,
              26.272012730439123
            ],
            [
              -80.22329668838198,
              26.271958742665124
            ],
            [
              -80.22343663572265,
              26.271944671011425
            ],
            [
              -80.22353194181345,
              26.271936505353125
            ],
            [
              -80.22363980098493,
              26.271929278516556
            ],
            [
              -80.22372705965381,
              26.271924907036812
            ],
            [
              -80.2237699318973,
              26.271923357122215
            ],
            [
              -80.22382181145483,
              26.27192165190571
            ],
            [
              -80.22392982990381,
              26.27191982592694
            ],
            [
              -80.22400511720983,
              26.271919772557645
            ],
            [
              -80.22481939263413,
              26.271931263143557
            ],
            [
              -80.22691565134807,
              26.27196046752547
            ],
            [
              -80.22747813324533,
              26.27196813731813
            ],
            [
              -80.22784576348974,
              26.27197325244027
            ],
            [
              -80.23013586997706,
              26.27200932544365
            ],
            [
              -80.23236492032326,
              26.272044403670204
            ],
            [
              -80.2332271842823,
              26.272056966949307
            ],
            [
              -80.23392140852931,
              26.27206597756714
            ],
            [
              -80.23405268837209,
              26.272067714197007
            ],
            [
              -80.2340521316424,
              26.27204408671819
            ],
            [
              -80.2337680312722,
              26.250398501964252
            ],
            [
              -80.2334851962117,
              26.230480355628632
            ],
            [
              -80.23348065533749,
              26.230264569495386
            ],
            [
              -80.23347643382685,
              26.22999381674223
            ],
            [
              -80.23347256775455,
              26.229765015998975
            ],
            [
              -80.23347258791154,
              26.229764994444068
            ],
            [
              -80.23344681973316,
              26.228189605642203
            ],
            [
              -80.22069169409981,
              26.228146201771008
            ],
            [
              -80.22069237148587,
              26.228036165185166
            ],
            [
              -80.22053065590816,
              26.228035976987517
            ],
            [
              -80.22037375324653,
              26.22189032997665
            ],
            [
              -80.2191062952607,
              26.221890358396973
            ],
            [
              -80.21248632025089,
              26.221889952531896
            ],
            [
              -80.2124384527857,
              26.22007266941754
            ],
            [
              -80.20663887002594,
              26.22007015879827
            ],
            [
              -80.20464445129289,
              26.22006938162078
            ],
            [
              -80.20462013757876,
              26.21913830304242
            ],
            [
              -80.2040100352399,
              26.2191412473582
            ],
            [
              -80.20399931346296,
              26.218732819671864
            ],
            [
              -80.20390204086269,
              26.215004276963295
            ],
            [
              -80.20390029541609,
              26.21493550470821
            ],
            [
              -80.2033342656977,
              26.21493801450336
            ],
            [
              -80.20292418833394,
              26.214943200894794
            ],
            [
              -80.20287321493298,
              26.212977188995264
            ],
            [
              -80.19943807545911,
              26.212995031245963
            ],
            [
              -80.19938097311838,
              26.214954414969892
            ],
            [
              -80.19937993140601,
              26.214954420000666
            ],
            [
              -80.1956192739591,
              26.214972185726992
            ],
            [
              -80.19561911584995,
              26.21497218664767
            ],
            [
              -80.19561888870473,
              26.214972186279557
            ],
            [
              -80.19557194412344,
              26.210754169558136
            ],
            [
              -80.19557192216021,
              26.210751251339293
            ],
            [
              -80.19557105969926,
              26.210752260131077
            ],
            [
              -80.19543738033663,
              26.210909603022472
            ],
            [
              -80.19526311868616,
              26.21111450396345
            ],
            [
              -80.19520417906257,
              26.2111836397736
            ],
            [
              -80.19515472109389,
              26.211241594906205
            ],
            [
              -80.1921784190463,
              26.214730749343
            ],
            [
              -80.19219604235433,
              26.215675169521187
            ],
            [
              -80.1923766020134,
              26.225835175578407
            ],
            [
              -80.19238203393854,
              26.226141202836526
            ],
            [
              -80.1924018120031,
              26.22725537290344
            ],
            [
              -80.19242060947288,
              26.22831432920789
            ],
            [
              -80.19244496161744,
              26.229686190934395
            ],
            [
              -80.19246307902239,
              26.23095677250187
            ],
            [
              -80.19065104387393,
              26.23097963737025
            ],
            [
              -80.19065227720027,
              26.23201314484271
            ],
            [
              -80.19065880941959,
              26.233659687424662
            ],
            [
              -80.192524766137,
              26.23414354532963
            ],
            [
              -80.19252585232093,
              26.235546441817142
            ],
            [
              -80.19456479450405,
              26.23554278991134
            ],
            [
              -80.19458835445027,
              26.235544026731112
            ],
            [
              -80.19457805084505,
              26.235771771917005
            ],
            [
              -80.19454464870837,
              26.236009873061843
            ],
            [
              -80.19450143208881,
              26.23619789743415
            ],
            [
              -80.19444735590258,
              26.236383652264813
            ],
            [
              -80.19442392828371,
              26.236477323883445
            ],
            [
              -80.19440413897193,
              26.236571676591332
            ],
            [
              -80.19438133114166,
              26.236714228923308
            ],
            [
              -80.19436307004871,
              26.236923716001048
            ],
            [
              -80.19436131098327,
              26.23855686690957
            ],
            [
              -80.1943630009098,
              26.24148397350163
            ],
            [
              -80.19436578346526,
              26.2415877520991
            ],
            [
              -80.19437054261391,
              26.24167587366604
            ],
            [
              -80.19438151782134,
              26.24178060440006
            ],
            [
              -80.19438840167588,
              26.241832749690243
            ],
            [
              -80.19439298148656,
              26.24186399335209
            ],
            [
              -80.19440655994289,
              26.2419426040988
            ],
            [
              -80.19441315367078,
              26.241976441369786
            ],
            [
              -80.19442878074926,
              26.242048404268928
            ],
            [
              -80.19443565929812,
              26.24207693408369
            ],
            [
              -80.1944540028401,
              26.24214947181734
            ],
            [
              -80.19449526729724,
              26.2422876852517
            ],
            [
              -80.19450503475507,
              26.24232183004256
            ],
            [
              -80.19451409831507,
              26.242357612703145
            ],
            [
              -80.19455483729703,
              26.2425460858651
            ],
            [
              -80.19458089787888,
              26.24273666371379
            ],
            [
              -80.19458838183938,
              26.242832450915124
            ],
            [
              -80.19459351015534,
              26.244407891293182
            ],
            [
              -80.19489423958348,
              26.244408733800228
            ],
            [
              -80.19489319919738,
              26.24471135015815
            ],
            [
              -80.19478804289659,
              26.244807663193757
            ],
            [
              -80.19442797106669,
              26.24480952945937
            ],
            [
              -80.19432156001417,
              26.24471151684871
            ],
            [
              -80.19400815296859,
              26.244709572150462
            ],
            [
              -80.19253719035856,
              26.244711813327108
            ],
            [
              -80.19253777706224,
              26.255856195644252
            ],
            [
              -80.19253795447483,
              26.25617884313271
            ],
            [
              -80.19254141635034,
              26.262318031034706
            ],
            [
              -80.1925491143973,
              26.270674077310975
            ],
            [
              -80.19254995401154,
              26.27211478661582
            ]
          ]
        ]
      }
    }
  ]
}