{
  "type": "FeatureCollection",
  "features": [
    {
      "type": "Feature",
      "properties": {
        "CITYNAME": "North Lauderdale",
        "name": "City-wide",
        "schedule_2025": "Weekly bulk pickup",
        "CONTACT": "North Lauderdale Public Works",
        "PHONE": "(954) 722-0900"
      },
      "geometry": {
        "type": "Polygon",
        "coordinates": [
          [
            [
              -80.2005325424611,
              26.203243865880026
            ],
            [
              -80.20055452184108,
              26.20326301663112
            ],
            [
              -80.20057296375083,
              26.203279168239508
            ],
            [
              -80.20061490046628,
              26.203315852765364
            ],
            [
              -80.20065683876132,
              26.20335230983321
            ],
            [
              -80.20067199735965,
              26.20336546189895
            ],
            [
              -80.20077471670486,
              26.203242866822126
            ],
            [
              -80.2005325424611,
              26.203243865880026
            ]
          ]
        ]
      }
    }
  ]
}