{
  "type": "FeatureCollection",
  "features": [
    {
      "type": "Feature",
      "properties": {
        "CITYNAME": "Plantation",
        "name": "City-wide",
        "schedule_2025": "Weekly bulk pickup",
        "CONTACT": "Plantation Public Works",
        "PHONE": "(954) 452-2540"
      },
      "geometry": {
        "type": "Polygon",
        "coordinates": [
          [
            [
              -80.2977983487587,
              26.160426804723542
            ],
            [
              -80.30984517658763,
              26.160691156630588
            ],
            [
              -80.3140575879527,
              26.160782815025676
            ],
            [
              -80.31400267865695,
              26.14358510310836
            ],
            [
              -80.31400934923501,
              26.122880782262918
            ],
            [
              -80.31528837336535,
              26.12291941933829
            ],
            [
              -80.31528439297058,
              26.123035867664754
            ],
            [
              -80.31527903879665,
              26.123126402382276
            ],
            [
              -80.31526691115523,
              26.123246481164493
            ],
            [
              -80.31525495656669,
              26.12333652599109
            ],
            [
              -80.31524021202632,
              26.123426099029043
            ],
            [
              -80.31522318712443,
              26.123514745068572
            ],
            [
              -80.31520490574394,
              26.123601091570805
            ],
            [
              -80.31519250160933,
              26.123681275804927
            ],
            [
              -80.3151873528333,
              26.123780294334082
            ],
            [
              -80.31519211001951,
              26.123879130658754
            ],
            [
              -80.31520581346847,
              26.12396815103953
            ],
            [
              -80.31522466440386,
              26.124045504200666
            ],
            [
              -80.3152631425842,
              26.12415435916271
            ],
            [
              -80.31530549614212,
              26.12425176921448
            ],
            [
              -80.31534062780251,
              26.124368174041578
            ],
            [
              -80.31535460709631,
              26.124453298190286
            ],
            [
              -80.31535821720405,
              26.124531266736227
            ],
            [
              -80.3153420838598,
              26.12468479843027
            ],
            [
              -80.31530890656177,
              26.124799503176266
            ],
            [
              -80.3152736292599,
              26.124882330843693
            ],
            [
              -80.31523985600474,
              26.124968374469628
            ],
            [
              -80.3152107192799,
              26.125086995906145
            ],
            [
              -80.3151993014332,
              26.12521578922916
            ],
            [
              -80.31521120685969,
              26.125352029876378
            ],
            [
              -80.3152377322008,
              26.125463350873083
            ],
            [
              -80.31526219341006,
              26.12553683224423
            ],
            [
              -80.31528757663094,
              26.125626595885954
            ],
            [
              -80.31531179600039,
              26.125741573267554
            ],
            [
              -80.31532711846974,
              26.125857883978085
            ],
            [
              -80.31533354801707,
              26.125974841143105
            ],
            [
              -80.3153308333294,
              26.126091983232076
            ],
            [
              -80.3153192323537,
              26.126208624573756
            ],
            [
              -80.3152984937612,
              26.12632430634205
            ],
            [
              -80.31527742228232,
              26.12640995176164
            ],
            [
              -80.31525567607714,
              26.12648046240869
            ],
            [
              -80.31523604682188,
              26.126536539345036
            ],
            [
              -80.3152172142146,
              26.12658665914456
            ],
            [
              -80.31519183447412,
              26.12667067921502
            ],
            [
              -80.3151724029513,
              26.126779947714642
            ],
            [
              -80.31516681553097,
              26.126867042278242
            ],
            [
              -80.31516995671596,
              26.126938129689226
            ],
            [
              -80.31517894059196,
              26.127009015594926
            ],
            [
              -80.31519551957426,
              26.127084064376245
            ],
            [
              -80.31521944905889,
              26.127161670908627
            ],
            [
              -80.31524830564226,
              26.127265436275287
            ],
            [
              -80.31527171489776,
              26.127388892638102
            ],
            [
              -80.31528248905033,
              26.127501054931972
            ],
            [
              -80.31528368006948,
              26.127601709295643
            ],
            [
              -80.31527566355805,
              26.127713553048647
            ],
            [
              -80.31526539535757,
              26.127819195918047
            ],
            [
              -80.31526308018911,
              26.12791134987283
            ],
            [
              -80.31526667592475,
              26.127991610074478
            ],
            [
              -80.31527585742077,
              26.12807235534504
            ],
            [
              -80.31529310762356,
              26.128162998290158
            ],
            [
              -80.31531024021848,
              26.128230254634584
            ],
            [
              -80.31532845823362,
              26.12828559429881
            ],
            [
              -80.31536173030469,
              26.128372644187568
            ],
            [
              -80.31540714644538,
              26.128467776065477
            ],
            [
              -80.31545441932482,
              26.128549390954362
            ],
            [
              -80.31550805902884,
              26.128628054705388
            ],
            [
              -80.31556756295493,
              26.12870284876329
            ],
            [
              -80.31562409139515,
              26.128765248301608
            ],
            [
              -80.31568116792494,
              26.128820772439443
            ],
            [
              -80.31575926038775,
              26.128887401103388
            ],
            [
              -80.31582804497934,
              26.128938853981076
            ],
            [
              -80.31590040833144,
              26.128986197927826
            ],
            [
              -80.31600495061446,
              26.129046761825172
            ],
            [
              -80.31609703881739,
              26.129108871411425
            ],
            [
              -80.31619434815374,
              26.129190493326075
            ],
            [
              -80.31625216306324,
              26.129250147533828
            ],
            [
              -80.31630108483775,
              26.12931044732836
            ],
            [
              -80.3163617527202,
              26.129403588771698
            ],
            [
              -80.31641832370349,
              26.129502441505817
            ],
            [
              -80.31646919475008,
              26.12957696498412
            ],
            [
              -80.31652669329591,
              26.129647393086795
            ],
            [
              -80.31658425862177,
              26.12970635818177
            ],
            [
              -80.31665425958077,
              26.129766987081542
            ],
            [
              -80.31676100838553,
              26.129841546130884
            ],
            [
              -80.31686860627933,
              26.12990097847133
            ],
            [
              -80.31698313370927,
              26.129948062305306
            ],
            [
              -80.31712132254955,
              26.129988150920514
            ],
            [
              -80.3172296603341,
              26.13000792257238
            ],
            [
              -80.31934875365427,
              26.130211676315497
            ],
            [
              -80.3194467895295,
              26.130212139300014
            ],
            [
              -80.31954437457387,
              26.13020274164659
            ],
            [
              -80.31963997691966,
              26.13018485172057
            ],
            [
              -80.31972520561959,
              26.130160264046744
            ],
            [
              -80.31981557394674,
              26.130125154338025
            ],
            [
              -80.31988714912391,
              26.130089726618266
            ],
            [
              -80.31995469511972,
              26.130048318930392
            ],
            [
              -80.32003632139875,
              26.129987719288653
            ],
            [
              -80.32012521163652,
              26.12990078735897
            ],
            [
              -80.3201922383827,
              26.129817421402958
            ],
            [
              -80.3202273479163,
              26.129763250936463
            ],
            [
              -80.32047399414547,
              26.12931986612555
            ],
            [
              -80.3205188022759,
              26.129257487726903
            ],
            [
              -80.32057553665727,
              26.12919699966685
            ],
            [
              -80.32066511752572,
              26.12912222264542
            ],
            [
              -80.32075458026172,
              26.129067849699005
            ],
            [
              -80.32083937952787,
              26.129029503351877
            ],
            [
              -80.32093504967378,
              26.128999691024323
            ],
            [
              -80.32102099444164,
              26.128982671721282
            ],
            [
              -80.32112037608141,
              26.12896984155031
            ],
            [
              -80.32121646527953,
              26.128955391842922
            ],
            [
              -80.3213120650523,
              26.1289377300395
            ],
            [
              -80.32141988977695,
              26.128914394077704
            ],
            [
              -80.32141071700673,
              26.131073125645855
            ],
            [
              -80.32141036643334,
              26.1312216893516
            ],
            [
              -80.32511166616096,
              26.131235172843056
            ],
            [
              -80.33007781148876,
              26.13125261157043
            ],
            [
              -80.33012762047598,
              26.11958062952853
            ],
            [
              -80.33012762418659,
              26.119579978753155
            ],
            [
              -80.2947085314298,
              26.11103550213217
            ],
            [
              -80.28246987046317,
              26.108058393761542
            ],
            [
              -80.28161703453408,
              26.10784137373787
            ],
            [
              -80.26825050691791,
              26.10456074747073
            ],
            [
              -80.26326123298537,
              26.103357443936474
            ],
            [
              -80.25781616670209,
              26.102016293015623
            ],
            [
              -80.24391859322462,
              26.09869056717652
            ],
            [
              -80.233272920537,
              26.096103695171585
            ],
            [
              -80.23327359629405,
              26.096119641671354
            ],
            [
              -80.22848293993887,
              26.09496283002464
            ],
            [
              -80.22512530980542,
              26.09414813866174
            ],
            [
              -80.21960427606118,
              26.09280782224472
            ],
            [
              -80.21946142622146,
              26.092774112090044
            ],
            [
              -80.21946142190298,
              26.09277476285189
            ],
            [
              -80.21790647123272,
              26.09795014811625
            ],
            [
              -80.21739620564968,
              26.0996775202476
            ],
            [
              -80.21728217964653,
              26.10006160711337
            ],
            [
              -80.21579080719924,
              26.10498956336037
            ],
            [
              -80.21572693307654,
              26.105200597060566
            ],
            [
              -80.21545304160614,
              26.106080780131645
            ],
            [
              -80.21459009699983,
              26.106112383142367
            ],
            [
              -80.2135826345183,
              26.106130277461336
            ],
            [
              -80.20753555451816,
              26.106218581166967
            ],
            [
              -80.20691152172435,
              26.106229191567767
            ],
            [
              -80.2058268972651,
              26.106248298759308
            ],
            [
              -80.20208141244946,
              26.106314121999194
            ],
            [
              -80.20250207566798,
              26.10491152891455
            ],
            [
              -80.20196095887323,
              26.104779902617466
            ],
            [
              -80.20201808282046,
              26.104577481482888
            ],
            [
              -80.2018383292741,
              26.1045946635076
            ],
            [
              -80.20160443340518,
              26.104603155805194
            ],
            [
              -80.20143834607008,
              26.104607789975923
            ],
            [
              -80.20136252252908,
              26.10461036856501
            ],
            [
              -80.20139417147098,
              26.105598238272652
            ],
            [
              -80.20141766645595,
              26.106331596012545
            ],
            [
              -80.20141768286267,
              26.106332124130603
            ],
            [
              -80.20141750489992,
              26.10633212585292
            ],
            [
              -80.20089679491907,
              26.106344819487322
            ],
            [
              -80.2009749589151,
              26.108757872398325
            ],
            [
              -80.20097787839518,
              26.108847989837034
            ],
            [
              -80.2009779072615,
              26.10884889080198
            ],
            [
              -80.20098254102086,
              26.109013906405423
            ],
            [
              -80.20098948554407,
              26.109228285924093
            ],
            [
              -80.20100608847787,
              26.109740796025115
            ],
            [
              -80.20109115533084,
              26.112366669135245
            ],
            [
              -80.20109116390432,
              26.112367025713628
            ],
            [
              -80.20109098593247,
              26.112367027435294
            ],
            [
              -80.20077214908495,
              26.11237544276378
            ],
            [
              -80.20068377000344,
              26.112377775297546
            ],
            [
              -80.20072113743976,
              26.113547002801546
            ],
            [
              -80.20073231340595,
              26.113739364831005
            ],
            [
              -80.20086695121454,
              26.1154467200773
            ],
            [
              -80.20086698243198,
              26.115447128229782
            ],
            [
              -80.2009364275706,
              26.11802299401775
            ],
            [
              -80.20093624959017,
              26.118022995739043
            ],
            [
              -80.20048023657579,
              26.11803301366221
            ],
            [
              -80.20048005858308,
              26.11803301718811
            ],
            [
              -80.20048001858547,
              26.1180330178689
            ],
            [
              -80.20047944659701,
              26.118033030943558
            ],
            [
              -80.20048230846477,
              26.118139202663123
            ],
            [
              -80.20049128182396,
              26.118472144557323
            ],
            [
              -80.20049110384285,
              26.11847214627807
            ],
            [
              -80.19945603439396,
              26.11849614841689
            ],
            [
              -80.19944324765278,
              26.118497460205614
            ],
            [
              -80.199442850447,
              26.11849750042241
            ],
            [
              -80.19943012550712,
              26.118500893969102
            ],
            [
              -80.19941824518799,
              26.11850622920378
            ],
            [
              -80.19940757152663,
              26.118513344765066
            ],
            [
              -80.19939842695008,
              26.11852202310988
            ],
            [
              -80.19939108819051,
              26.118532003116204
            ],
            [
              -80.19938577928055,
              26.118542980946792
            ],
            [
              -80.19938266046324,
              26.118554623526475
            ],
            [
              -80.19938182712467,
              26.118566578465174
            ],
            [
              -80.19942308170779,
              26.120097686137388
            ],
            [
              -80.19944404878075,
              26.120875836743245
            ],
            [
              -80.19944387079603,
              26.120875838462606
            ],
            [
              -80.19944306978792,
              26.120875857481916
            ],
            [
              -80.19935581302782,
              26.120877910996608
            ],
            [
              -80.19935563502463,
              26.120877915423556
            ],
            [
              -80.19919593062173,
              26.120881674923343
            ],
            [
              -80.1991954916188,
              26.120881685121045
            ],
            [
              -80.1991953136156,
              26.12088168954783
            ],
            [
              -80.19918529653296,
              26.120881924538743
            ],
            [
              -80.19918523152681,
              26.120881926885442
            ],
            [
              -80.1991850535421,
              26.120881928604483
            ],
            [
              -80.19919823376667,
              26.120880575704483
            ],
            [
              -80.1992109549916,
              26.12087717945556
            ],
            [
              -80.19922282957597,
              26.120871842407006
            ],
            [
              -80.19923349844899,
              26.120864729546923
            ],
            [
              -80.19924077039003,
              26.12085782888366
            ],
            [
              -80.19924213204806,
              26.120856528567998
            ],
            [
              -80.19924263726277,
              26.120856045771095
            ],
            [
              -80.19924310147597,
              26.12085541742647
            ],
            [
              -80.19924366962323,
              26.12085464975487
            ],
            [
              -80.19924703934177,
              26.120850068780747
            ],
            [
              -80.1992476741655,
              26.120849200387383
            ],
            [
              -80.199247942619,
              26.120848834516984
            ],
            [
              -80.19924997515498,
              26.120846070286504
            ],
            [
              -80.19925090518369,
              26.120844138454917
            ],
            [
              -80.19925395067314,
              26.120837838015483
            ],
            [
              -80.19925528217581,
              26.12083509426117
            ],
            [
              -80.19925839905456,
              26.120823454386173
            ],
            [
              -80.19925923240979,
              26.120811502160265
            ],
            [
              -80.19924405053953,
              26.120248408516616
            ],
            [
              -80.19795692694775,
              26.120276657686436
            ],
            [
              -80.19795674294666,
              26.120276662078332
            ],
            [
              -80.19795471175955,
              26.12022167109315
            ],
            [
              -80.19764283914327,
              26.120228513922406
            ],
            [
              -80.19765096112602,
              26.120530192791193
            ],
            [
              -80.19765951322137,
              26.12084765885591
            ],
            [
              -80.19765970547003,
              26.12084937488173
            ],
            [
              -80.19766046293437,
              26.12085602410012
            ],
            [
              -80.19766073767877,
              26.120858397683982
            ],
            [
              -80.19766381094917,
              26.12086882998704
            ],
            [
              -80.19766824852375,
              26.120877869938226
            ],
            [
              -80.19766865880429,
              26.120878698108417
            ],
            [
              -80.19767147842988,
              26.12088264285627
            ],
            [
              -80.19767515189065,
              26.120887763942047
            ],
            [
              -80.19768313879094,
              26.120895799187597
            ],
            [
              -80.19768925226568,
              26.120900278560157
            ],
            [
              -80.1976924198872,
              26.120902605965195
            ],
            [
              -80.19770276634493,
              26.120908018726254
            ],
            [
              -80.19771392411835,
              26.12091190337323
            ],
            [
              -80.19772349504662,
              26.120913751026727
            ],
            [
              -80.19772561788201,
              26.120914167210064
            ],
            [
              -80.19773738118636,
              26.12091473994504
            ],
            [
              -80.19773755914645,
              26.12091474183811
            ],
            [
              -80.19812017752989,
              26.120906189323907
            ],
            [
              -80.19810986415143,
              26.120523147092353
            ],
            [
              -80.19810931215068,
              26.12050265300564
            ],
            [
              -80.1981093471501,
              26.120502652297713
            ],
            [
              -80.19810949113462,
              26.120502651293467
            ],
            [
              -80.19838341774657,
              26.12049443299382
            ],
            [
              -80.1983834627502,
              26.120494431438864
            ],
            [
              -80.19838364074049,
              26.120494428818223
            ],
            [
              -80.19839454480746,
              26.12090005308127
            ],
            [
              -80.19859576396668,
              26.12089555768312
            ],
            [
              -80.19859594195141,
              26.120895555964797
            ],
            [
              -80.19859261800492,
              26.12103309771557
            ],
            [
              -80.19859260856177,
              26.121033455998614
            ],
            [
              -80.19859243057682,
              26.12103345771692
            ],
            [
              -80.19724218115056,
              26.121063124808245
            ],
            [
              -80.1972440098783,
              26.121200660892562
            ],
            [
              -80.1972622983165,
              26.121879984408718
            ],
            [
              -80.19799719347239,
              26.1218633539438
            ],
            [
              -80.19844398233226,
              26.121853688198737
            ],
            [
              -80.1986537842413,
              26.12184958166108
            ],
            [
              -80.19878942378172,
              26.121846208929977
            ],
            [
              -80.1988085178833,
              26.12187657771241
            ],
            [
              -80.19885478361451,
              26.121944696564682
            ],
            [
              -80.19891495021518,
              26.122022522585304
            ],
            [
              -80.19897896217391,
              26.122095096009907
            ],
            [
              -80.19905388331831,
              26.12216933486216
            ],
            [
              -80.19973506973368,
              26.122757967916545
            ],
            [
              -80.20023878465057,
              26.123190861029386
            ],
            [
              -80.20030370352382,
              26.123242346759344
            ],
            [
              -80.20039393489562,
              26.123306353058457
            ],
            [
              -80.20046474329382,
              26.123350764250635
            ],
            [
              -80.20055077357941,
              26.123397553363272
            ],
            [
              -80.20069179571287,
              26.123461841173796
            ],
            [
              -80.2008113698646,
              26.12350583482741
            ],
            [
              -80.20092112609444,
              26.12353693525277
            ],
            [
              -80.20103244823466,
              26.1235618541867
            ],
            [
              -80.20113164593482,
              26.123577076811234
            ],
            [
              -80.20121793234715,
              26.123586266991182
            ],
            [
              -80.20124094924479,
              26.12416133624798
            ],
            [
              -80.20125842462942,
              26.124634117351892
            ],
            [
              -80.20138159292911,
              26.124631469226685
            ],
            [
              -80.20144676998962,
              26.1262740385041
            ],
            [
              -80.20145697039833,
              26.12634264449815
            ],
            [
              -80.20146742634053,
              26.12641102264433
            ],
            [
              -80.20157106703226,
              26.129023130573074
            ],
            [
              -80.20161318336663,
              26.129888831173623
            ],
            [
              -80.20161651754074,
              26.12995877466524
            ],
            [
              -80.20167184331162,
              26.131160418548077
            ],
            [
              -80.20176662687325,
              26.133544588151906
            ],
            [
              -80.20177492576,
              26.133743404494968
            ],
            [
              -80.20152471353295,
              26.13374820923592
            ],
            [
              -80.20160204183904,
              26.135785406792245
            ],
            [
              -80.20252597774208,
              26.13576209475371
            ],
            [
              -80.20256393913384,
              26.13757714790751
            ],
            [
              -80.20256434432451,
              26.137592281452317
            ],
            [
              -80.20282726360614,
              26.13758777552064
            ],
            [
              -80.2035865521106,
              26.13757477974516
            ],
            [
              -80.20358398019344,
              26.137504611298326
            ],
            [
              -80.20492575345457,
              26.13748175895367
            ],
            [
              -80.20491999555706,
              26.137206840847725
            ],
            [
              -80.20540747467628,
              26.137198296122317
            ],
            [
              -80.20541349080791,
              26.13747275712864
            ],
            [
              -80.20556641028597,
              26.137470848302335
            ],
            [
              -80.20666279254979,
              26.13745212975704
            ],
            [
              -80.20739413798586,
              26.13743964691513
            ],
            [
              -80.20739685639218,
              26.137563693688694
            ],
            [
              -80.21405707360258,
              26.13754538348431
            ],
            [
              -80.21577794871614,
              26.137540316539084
            ],
            [
              -80.2156948797672,
              26.13643940110013
            ],
            [
              -80.21519305679324,
              26.136276414139104
            ],
            [
              -80.21519235552799,
              26.13600152352247
            ],
            [
              -80.21618287285172,
              26.135998592116614
            ],
            [
              -80.2165546907181,
              26.13753812271578
            ],
            [
              -80.21866141841123,
              26.137532326155473
            ],
            [
              -80.21940842226273,
              26.13752976793427
            ],
            [
              -80.21938023339936,
              26.136161608900718
            ],
            [
              -80.21962345377078,
              26.136153654752885
            ],
            [
              -80.21965629272141,
              26.13772575463682
            ],
            [
              -80.21996112588813,
              26.137720527369368
            ],
            [
              -80.22011608236356,
              26.13771792724121
            ],
            [
              -80.2201208365802,
              26.13772872832329
            ],
            [
              -80.22012686988411,
              26.13773816075195
            ],
            [
              -80.22013569707481,
              26.13774760830243
            ],
            [
              -80.22014074792934,
              26.137751991632538
            ],
            [
              -80.22014935007007,
              26.1377570819719
            ],
            [
              -80.22016201247698,
              26.137762882074725
            ],
            [
              -80.2201719003207,
              26.137765457481265
            ],
            [
              -80.2201863650247,
              26.137767599132527
            ],
            [
              -80.22034361051634,
              26.137764552623704
            ],
            [
              -80.22132111088825,
              26.13774782943885
            ],
            [
              -80.2227048029817,
              26.137723891699796
            ],
            [
              -80.22289227572065,
              26.137720776207928
            ],
            [
              -80.22295629175554,
              26.137719516618475
            ],
            [
              -80.22298173473591,
              26.137713005206862
            ],
            [
              -80.22300367496857,
              26.13769845070215
            ],
            [
              -80.22301724871137,
              26.13768155844914
            ],
            [
              -80.22302398142217,
              26.13766210741344
            ],
            [
              -80.22302428490369,
              26.13761625648049
            ],
            [
              -80.22302239294727,
              26.13751835013882
            ],
            [
              -80.22323575709393,
              26.13751766734174
            ],
            [
              -80.223205310579,
              26.13597708229228
            ],
            [
              -80.22407399472209,
              26.135974197058587
            ],
            [
              -80.224105720081,
              26.137515017366866
            ],
            [
              -80.22671358225128,
              26.137506798482043
            ],
            [
              -80.22668243427054,
              26.13596588107108
            ],
            [
              -80.22667682519689,
              26.13569098806796
            ],
            [
              -80.23472884098153,
              26.135661370960527
            ],
            [
              -80.23478425513052,
              26.13838692841629
            ],
            [
              -80.23502349407518,
              26.1501987076462
            ],
            [
              -80.25112477459791,
              26.150154246082888
            ],
            [
              -80.29781464316792,
              26.150023978730275
            ],
            [
              -80.2977983487587,
              26.160426804723542
            ]
          ]
        ]
      }
    }
  ]
}