{
  "type": "FeatureCollection",
  "features": [
    {
      "type": "Feature",
      "properties": {
        "CITYNAME": "Tamarac",
        "name": "City-wide",
        "schedule_2025": "Weekly bulk pickup",
        "CONTACT": "Tamarac Public Works",
        "PHONE": "(954) 597-3800"
      },
      "geometry": {
        "type": "MultiPolygon",
        "coordinates": [
          [
            [
              [
                -80.24033796029364,
                26.228475856177933
              ],
              [
                -80.24034332830304,
                26.228784240017724
              ],
              [
                -80.2403589110994,
                26.22967225030381
              ],
              [
                -80.24035910677198,
                26.22968834290056
              ],
              [
                -80.24035910752056,
                26.22968838171635
              ],
              [
                -80.24035923126512,
                26.229698601613748
              ],
              [
                -80.24035924221397,
                26.22969953496057
              ],
              [
                -80.24066198348028,
                26.229696564819992
              ],
              [
                -80.2406622947367,
                26.229696562853963
              ],
              [
                -80.24066303035761,
                26.229696555909108
              ],
              [
                -80.24106166785089,
                26.229692482184227
              ],
              [
                -80.24106240347766,
                26.22969247433474
              ],
              [
                -80.24976806868086,
                26.229603614788413
              ],
              [
                -80.24976880430769,
                26.229603606894347
              ],
              [
                -80.25003397999981,
                26.229600646565316
              ],
              [
                -80.25003471562665,
                26.229600638669872
              ],
              [
                -80.26566116134177,
                26.229440612982916
              ],
              [
                -80.26566189696864,
                26.229440605007465
              ],
              [
                -80.29746640679939,
                26.229110801843753
              ],
              [
                -80.29746714243156,
                26.229110792802842
              ],
              [
                -80.29747169971563,
                26.228775403353985
              ],
              [
                -80.29753590454185,
                26.218806675318486
              ],
              [
                -80.2975387402033,
                26.218376820747082
              ],
              [
                -80.2975626314925,
                26.20838633068027
              ],
              [
                -80.29756303144326,
                26.20823501814925
              ],
              [
                -80.29756396350207,
                26.208037397988498
              ],
              [
                -80.29757555527279,
                26.2053862512398
              ],
              [
                -80.29758702120631,
                26.202755736590905
              ],
              [
                -80.29759267726043,
                26.201431995793047
              ],
              [
                -80.2975935827919,
                26.201238731318103
              ],
              [
                -80.29759493024764,
                26.200929460897097
              ],
              [
                -80.29759640423005,
                26.200599098862114
              ],
              [
                -80.29760171111951,
                26.199375774186684
              ],
              [
                -80.29762483022093,
                26.19403931280007
              ],
              [
                -80.29762597161152,
                26.193637189362352
              ],
              [
                -80.29762523684666,
                26.193637091000955
              ],
              [
                -80.29752973622429,
                26.193624339281982
              ],
              [
                -80.29752900079363,
                26.193624351938134
              ],
              [
                -80.29705501095654,
                26.193628217004406
              ],
              [
                -80.29705427555837,
                26.19362822424264
              ],
              [
                -80.29679197602694,
                26.19363105742297
              ],
              [
                -80.29679124062876,
                26.19363106465984
              ],
              [
                -80.29595713663024,
                26.19363866781203
              ],
              [
                -80.2959564012375,
                26.19363867414203
              ],
              [
                -80.29512331409131,
                26.193646048170095
              ],
              [
                -80.29512257869857,
                26.193646054495826
              ],
              [
                -80.29428923607146,
                26.1936536517032
              ],
              [
                -80.29428850067873,
                26.19365365802467
              ],
              [
                -80.29368388193737,
                26.193659163791764
              ],
              [
                -80.29368314654467,
                26.193659170110127
              ],
              [
                -80.2909516569363,
                26.1936837819463
              ],
              [
                -80.29095092154365,
                26.193683788250727
              ],
              [
                -80.28427598914561,
                26.193743807489618
              ],
              [
                -80.28427525376412,
                26.193743811954715
              ],
              [
                -80.27765425977705,
                26.19375220347363
              ],
              [
                -80.27138271344191,
                26.193760929425494
              ],
              [
                -80.26942087655958,
                26.193762902086995
              ],
              [
                -80.26885748364747,
                26.193763478965884
              ],
              [
                -80.26817414372616,
                26.19376413765333
              ],
              [
                -80.26817340736251,
                26.19376413932327
              ],
              [
                -80.26799501323468,
                26.193764388909294
              ],
              [
                -80.2662878041177,
                26.19376669710608
              ],
              [
                -80.25202633415286,
                26.193788402427362
              ],
              [
                -80.25019231825023,
                26.193791235823156
              ],
              [
                -80.24721804414355,
                26.193796337455545
              ],
              [
                -80.24397693997079,
                26.193802039002033
              ],
              [
                -80.24237773616787,
                26.19380463091681
              ],
              [
                -80.24000904154445,
                26.19380887377668
              ],
              [
                -80.23596973114624,
                26.193816595428117
              ],
              [
                -80.23595551422663,
                26.19319132283543
              ],
              [
                -80.23582061618806,
                26.187265557161755
              ],
              [
                -80.23580371886399,
                26.18654489600036
              ],
              [
                -80.23570270049909,
                26.18208727164791
              ],
              [
                -80.23569816364822,
                26.181886871767166
              ],
              [
                -80.23569241037008,
                26.181639238373965
              ],
              [
                -80.23568707404311,
                26.181405592162776
              ],
              [
                -80.23567999983827,
                26.181087796692225
              ],
              [
                -80.23567801683579,
                26.181002271468607
              ],
              [
                -80.23567013419671,
                26.180652604280482
              ],
              [
                -80.23566239498945,
                26.18031990322071
              ],
              [
                -80.23565992476996,
                26.180231165733687
              ],
              [
                -80.2356566582249,
                26.180069747982053
              ],
              [
                -80.23564917013998,
                26.179737506753956
              ],
              [
                -80.23564106489482,
                26.17938302382337
              ],
              [
                -80.23550487014742,
                26.17938344675761
              ],
              [
                -80.22968463062338,
                26.17939184611474
              ],
              [
                -80.2259985162004,
                26.179397059418406
              ],
              [
                -80.22182175081531,
                26.179402965149293
              ],
              [
                -80.21969067973032,
                26.179406328893354
              ],
              [
                -80.2197114894231,
                26.17929570844374
              ],
              [
                -80.21920200298018,
                26.179297283255313
              ],
              [
                -80.21920127070278,
                26.17929728650345
              ],
              [
                -80.21899697444739,
                26.179298022956143
              ],
              [
                -80.21878099308388,
                26.179298914122523
              ],
              [
                -80.2181523611288,
                26.17930123206539
              ],
              [
                -80.21746401442634,
                26.179304139640667
              ],
              [
                -80.21712759384893,
                26.179305061211238
              ],
              [
                -80.2169329557406,
                26.179305836436853
              ],
              [
                -80.21676270872995,
                26.179306973399676
              ],
              [
                -80.21659501017969,
                26.179306977726185
              ],
              [
                -80.2164273060352,
                26.179307669610758
              ],
              [
                -80.21627484919203,
                26.179308215067312
              ],
              [
                -80.21610740013398,
                26.179308907968043
              ],
              [
                -80.21593054914185,
                26.179309549454132
              ],
              [
                -80.21577809230854,
                26.179310094384324
              ],
              [
                -80.21561038918159,
                26.179310785322144
              ],
              [
                -80.21545793235465,
                26.17931132991312
              ],
              [
                -80.21530547145987,
                26.17931233284294
              ],
              [
                -80.21512862455721,
                26.17931251484297
              ],
              [
                -80.21495101235008,
                26.179313150973726
              ],
              [
                -80.21479321733405,
                26.179313895003663
              ],
              [
                -80.21464025236475,
                26.17931443595585
              ],
              [
                -80.21447305895735,
                26.179314899088055
              ],
              [
                -80.21432059961582,
                26.17931567172131
              ],
              [
                -80.2141681428146,
                26.179316214945615
              ],
              [
                -80.21399129186726,
                26.179316854048075
              ],
              [
                -80.21385408136727,
                26.179317250942038
              ],
              [
                -80.21370162457562,
                26.179317793672023
              ],
              [
                -80.21354942186635,
                26.179318337628843
              ],
              [
                -80.21341551186583,
                26.179318981400865
              ],
              [
                -80.21325949797348,
                26.17931950422166
              ],
              [
                -80.21310704273334,
                26.179319817068826
              ],
              [
                -80.21293959220287,
                26.179320735535565
              ],
              [
                -80.21277239321387,
                26.179321884444466
              ],
              [
                -80.21263467765894,
                26.17932181889054
              ],
              [
                -80.2124822198915,
                26.179322360322963
              ],
              [
                -80.21232391776489,
                26.179323098869663
              ],
              [
                -80.21217730636653,
                26.17932344271413
              ],
              [
                -80.21200960177464,
                26.179324358707692
              ],
              [
                -80.21183275241944,
                26.17932476590423
              ],
              [
                -80.21169579449722,
                26.179325391384154
              ],
              [
                -80.21154308366975,
                26.179325930435287
              ],
              [
                -80.2113753796327,
                26.179326616431368
              ],
              [
                -80.21122292289083,
                26.179327156534924
              ],
              [
                -80.2110699579938,
                26.179327693691402
              ],
              [
                -80.21089361627723,
                26.17932833177737
              ],
              [
                -80.21072642041236,
                26.179329019803173
              ],
              [
                -80.21055821232406,
                26.179329243560197
              ],
              [
                -80.21035849225392,
                26.17933021127677
              ],
              [
                -80.21015877273331,
                26.17933094945797
              ],
              [
                -80.2100413804736,
                26.179331451475388
              ],
              [
                -80.2098538583021,
                26.17933202691981
              ],
              [
                -80.20971918712507,
                26.17933266307231
              ],
              [
                -80.20953443393282,
                26.179333237057904
              ],
              [
                -80.20953369862494,
                26.179333244753238
              ],
              [
                -80.20936671604738,
                26.17933597947315
              ],
              [
                -80.20936598067858,
                26.179335996193313
              ],
              [
                -80.20923716879662,
                26.179334371471295
              ],
              [
                -80.2090959086276,
                26.17933244445324
              ],
              [
                -80.20890935887583,
                26.17933552963527
              ],
              [
                -80.20890862356796,
                26.1793355373274
              ],
              [
                -80.20875616371315,
                26.17933654325054
              ],
              [
                -80.20858846383899,
                26.179336766596037
              ],
              [
                -80.20826830318397,
                26.179337986121073
              ],
              [
                -80.20807417445594,
                26.179338752163552
              ],
              [
                -80.20787013565317,
                26.17933946340104
              ],
              [
                -80.20766558659798,
                26.179340630062125
              ],
              [
                -80.20746457395605,
                26.179340882615264
              ],
              [
                -80.20746442003228,
                26.179438769904067
              ],
              [
                -80.20746990196609,
                26.179679983579184
              ],
              [
                -80.20747713487528,
                26.180038129998536
              ],
              [
                -80.20748407385702,
                26.180327037963796
              ],
              [
                -80.20748993108272,
                26.180588198479782
              ],
              [
                -80.20749322702042,
                26.180739529778144
              ],
              [
                -80.20749652296725,
                26.180890860170877
              ],
              [
                -80.2075023807639,
                26.18115179140945
              ],
              [
                -80.20750839495382,
                26.181427167842976
              ],
              [
                -80.20751819312967,
                26.181856857719467
              ],
              [
                -80.20753779243246,
                26.18275337768333
              ],
              [
                -80.20754290997483,
                26.18297349724188
              ],
              [
                -80.20754217466866,
                26.182973501316212
              ],
              [
                -80.20693153946239,
                26.182975401441503
              ],
              [
                -80.20458693743628,
                26.182983094964307
              ],
              [
                -80.20446242874506,
                26.182983324673287
              ],
              [
                -80.20382387275419,
                26.18298484153504
              ],
              [
                -80.2038305932654,
                26.183267323480507
              ],
              [
                -80.20385877186406,
                26.184542401135086
              ],
              [
                -80.20386848559733,
                26.185019776611455
              ],
              [
                -80.20386775030325,
                26.185019777056457
              ],
              [
                -80.20340241565606,
                26.18501763960704
              ],
              [
                -80.20244749230949,
                26.185013159881176
              ],
              [
                -80.20016895542757,
                26.185001727371393
              ],
              [
                -80.19810160439573,
                26.184991424048825
              ],
              [
                -80.19749076649047,
                26.184988477342632
              ],
              [
                -80.19718610931137,
                26.184987012682615
              ],
              [
                -80.19721756039516,
                26.186181861760925
              ],
              [
                -80.19721835052069,
                26.186214879674345
              ],
              [
                -80.19721815883891,
                26.186242848380267
              ],
              [
                -80.19721742354429,
                26.186242847888536
              ],
              [
                -80.1956280892772,
                26.18623401119864
              ],
              [
                -80.19562804025925,
                26.186234010924633
              ],
              [
                -80.19562735490265,
                26.186234022437723
              ],
              [
                -80.19562891469566,
                26.186221615893967
              ],
              [
                -80.19563054158182,
                26.18620672306222
              ],
              [
                -80.19563052380693,
                26.186206106487038
              ],
              [
                -80.19562892041013,
                26.186220783728707
              ],
              [
                -80.19562730484094,
                26.186234028476097
              ],
              [
                -80.1894578601428,
                26.18620225166144
              ],
              [
                -80.18945712486834,
                26.18620224842236
              ],
              [
                -80.18944124888195,
                26.1856337300074
              ],
              [
                -80.18942930328686,
                26.185193482215592
              ],
              [
                -80.18939896991424,
                26.184070076113684
              ],
              [
                -80.18844070602573,
                26.184073470040847
              ],
              [
                -80.18843997072105,
                26.18407347311485
              ],
              [
                -80.18738236301938,
                26.184076667961406
              ],
              [
                -80.1847724115059,
                26.184128624397584
              ],
              [
                -80.18388471869183,
                26.184146977344554
              ],
              [
                -80.18337899335282,
                26.18415694692776
              ],
              [
                -80.18335662882586,
                26.184157507792868
              ],
              [
                -80.1832941185717,
                26.184158966359547
              ],
              [
                -80.18331261874968,
                26.184930095373158
              ],
              [
                -80.18331865689927,
                26.185194008811447
              ],
              [
                -80.18332509100179,
                26.185437290185554
              ],
              [
                -80.18333851244846,
                26.18598928720903
              ],
              [
                -80.18329074163249,
                26.185990529743965
              ],
              [
                -80.18309200344707,
                26.185994903877674
              ],
              [
                -80.18301779423426,
                26.185996546812788
              ],
              [
                -80.18266911047354,
                26.186004423997105
              ],
              [
                -80.18236414008004,
                26.186011174068444
              ],
              [
                -80.18236340476392,
                26.186011177111094
              ],
              [
                -80.18201929750303,
                26.186014940310343
              ],
              [
                -80.18201856214911,
                26.1860149487666
              ],
              [
                -80.18170240878602,
                26.186018183231383
              ],
              [
                -80.18170167343209,
                26.186018191686042
              ],
              [
                -80.18073750972812,
                26.18602851094076
              ],
              [
                -80.1807367743679,
                26.186028520293025
              ],
              [
                -80.18062009857738,
                26.186030810166148
              ],
              [
                -80.18061936317929,
                26.186030824933177
              ],
              [
                -80.18043279827165,
                26.18603455797291
              ],
              [
                -80.18043206287352,
                26.186034572738954
              ],
              [
                -80.18029175327985,
                26.186037194379832
              ],
              [
                -80.18029101788802,
                26.186037208242617
              ],
              [
                -80.18015833264273,
                26.186039644827908
              ],
              [
                -80.1801575972509,
                26.186039658690014
              ],
              [
                -80.17988411951085,
                26.18604495914995
              ],
              [
                -80.17988338411898,
                26.18604497301066
              ],
              [
                -80.17960914308105,
                26.186050270402312
              ],
              [
                -80.17960840768917,
                26.186050284261615
              ],
              [
                -80.17933518301487,
                26.18605558602252
              ],
              [
                -80.17933444762295,
                26.186055599880415
              ],
              [
                -80.17906096984763,
                26.18606089967658
              ],
              [
                -80.17906023445569,
                26.186060913533076
              ],
              [
                -80.17878650157866,
                26.186066211351655
              ],
              [
                -80.17878576618668,
                26.186066225206755
              ],
              [
                -80.17851228839844,
                26.186071523056277
              ],
              [
                -80.17851155300644,
                26.186071536909964
              ],
              [
                -80.17823782010385,
                26.186076834586075
              ],
              [
                -80.17823708471184,
                26.186076848438358
              ],
              [
                -80.17814429827209,
                26.18607859307077
              ],
              [
                -80.17814356288007,
                26.186078606922568
              ],
              [
                -80.17794835978711,
                26.186082288303357
              ],
              [
                -80.17794762439507,
                26.186082302154162
              ],
              [
                -80.17770413322557,
                26.186087081991154
              ],
              [
                -80.17770339782084,
                26.186087097645835
              ],
              [
                -80.17620373725987,
                26.1861481797775
              ],
              [
                -80.17620300175322,
                26.186148209865458
              ],
              [
                -80.17576178356192,
                26.18615804250737
              ],
              [
                -80.17576104815043,
                26.186158059054662
              ],
              [
                -80.17544283713274,
                26.18616492799831
              ],
              [
                -80.17544210172754,
                26.18616494364142
              ],
              [
                -80.17543038498022,
                26.186165092222026
              ],
              [
                -80.1754296496195,
                26.186165101547157
              ],
              [
                -80.17533380981105,
                26.18616728267958
              ],
              [
                -80.17533307439949,
                26.186167299224696
              ],
              [
                -80.17527528621159,
                26.186168435652874
              ],
              [
                -80.17526348730168,
                26.186121714584214
              ],
              [
                -80.1752610119509,
                26.18611253000923
              ],
              [
                -80.17523523191582,
                26.18601999330189
              ],
              [
                -80.1752004291105,
                26.18591043694734
              ],
              [
                -80.17518971684915,
                26.18588102579186
              ],
              [
                -80.17517625682875,
                26.18584403782843
              ],
              [
                -80.1751568100584,
                26.185790054842382
              ],
              [
                -80.17512409341623,
                26.185709166986253
              ],
              [
                -80.17507707245605,
                26.185602522742794
              ],
              [
                -80.17505002743391,
                26.18554688143712
              ],
              [
                -80.1750259774547,
                26.185497229783056
              ],
              [
                -80.17497029803175,
                26.185393740988374
              ],
              [
                -80.17491155368319,
                26.185292072286888
              ],
              [
                -80.17486482041384,
                26.185217066560636
              ],
              [
                -80.1748283625883,
                26.185162744992716
              ],
              [
                -80.17481906079989,
                26.185148705005695
              ],
              [
                -80.17481553522673,
                26.185143193386864
              ],
              [
                -80.17478434226328,
                26.185098989425896
              ],
              [
                -80.1747465960661,
                26.1850465053582
              ],
              [
                -80.174674333669,
                26.184952096249933
              ],
              [
                -80.17459799182602,
                26.18485995449892
              ],
              [
                -80.17456320424296,
                26.18482077268368
              ],
              [
                -80.1745445502829,
                26.1847995755933
              ],
              [
                -80.17451858327473,
                26.184770316070647
              ],
              [
                -80.17445653952674,
                26.1847043927748
              ],
              [
                -80.17439269787941,
                26.184641204838677
              ],
              [
                -80.17432707763247,
                26.184578013890636
              ],
              [
                -80.17425966269913,
                26.184517102504362
              ],
              [
                -80.1741667094236,
                26.18443838792187
              ],
              [
                -80.17416140527247,
                26.184434003353
              ],
              [
                -80.17411314019361,
                26.184395894897076
              ],
              [
                -80.17405198715161,
                26.18434785789721
              ],
              [
                -80.17404757619101,
                26.18434434765196
              ],
              [
                -80.17411633698391,
                26.184342746655172
              ],
              [
                -80.17411707236491,
                26.18434273282368
              ],
              [
                -80.17433858164794,
                26.184338491768
              ],
              [
                -80.17424245355087,
                26.18425888079105
              ],
              [
                -80.17414176594137,
                26.18418124103239
              ],
              [
                -80.1740733538024,
                26.184132268810927
              ],
              [
                -80.17403796101553,
                26.184106616941996
              ],
              [
                -80.17395779203686,
                26.1840527392645
              ],
              [
                -80.17387684370458,
                26.18400114966624
              ],
              [
                -80.17376627015256,
                26.183934946570837
              ],
              [
                -80.17371590415775,
                26.183906687700276
              ],
              [
                -80.17368148096405,
                26.18388769074677
              ],
              [
                -80.1735959150302,
                26.183842493750358
              ],
              [
                -80.1735088117055,
                26.183799121951893
              ],
              [
                -80.17342042022777,
                26.18375826365667
              ],
              [
                -80.17330059390237,
                26.183706909845508
              ],
              [
                -80.1731789674421,
                26.183658753423803
              ],
              [
                -80.1730555284922,
                26.18361540184153
              ],
              [
                -80.17304817941648,
                26.183612608494172
              ],
              [
                -80.17293079716576,
                26.18357502310301
              ],
              [
                -80.1728359600305,
                26.183547425373302
              ],
              [
                -80.17274034287655,
                26.183522344954255
              ],
              [
                -80.17272588264977,
                26.183519052191958
              ],
              [
                -80.17261198432385,
                26.18349203251691
              ],
              [
                -80.17256326624994,
                26.183482352758087
              ],
              [
                -80.17251505797525,
                26.183472446654644
              ],
              [
                -80.17104380984071,
                26.183189325291426
              ],
              [
                -80.16701222986563,
                26.182415866953633
              ],
              [
                -80.16701642325292,
                26.18255630364932
              ],
              [
                -80.16701568383793,
                26.182556182934476
              ],
              [
                -80.1670156878513,
                26.182556321957566
              ],
              [
                -80.16298088451188,
                26.181781040445767
              ],
              [
                -80.16298014526127,
                26.181780898048977
              ],
              [
                -80.16298467826691,
                26.18192184853253
              ],
              [
                -80.16298471794957,
                26.181922735112597
              ],
              [
                -80.16001518496634,
                26.1813519715272
              ],
              [
                -80.15982463718973,
                26.181316343974803
              ],
              [
                -80.159633660629,
                26.18128263439165
              ],
              [
                -80.15944228026365,
                26.181250845629535
              ],
              [
                -80.15925051906609,
                26.181220981431302
              ],
              [
                -80.15905840100238,
                26.18119304644832
              ],
              [
                -80.15887701125881,
                26.18116853878932
              ],
              [
                -80.15886595104529,
                26.181167044435337
              ],
              [
                -80.15873794019299,
                26.18115106128985
              ],
              [
                -80.15867319117956,
                26.181142977324566
              ],
              [
                -80.158636767193,
                26.181138801991526
              ],
              [
                -80.15857458724204,
                26.18113167440853
              ],
              [
                -80.15848014637781,
                26.181120848871057
              ],
              [
                -80.15828684061873,
                26.181100661921498
              ],
              [
                -80.1580932978875,
                26.18108241842021
              ],
              [
                -80.15789954216267,
                26.181066121214148
              ],
              [
                -80.15770559642897,
                26.181051772241997
              ],
              [
                -80.15751148667198,
                26.181039373460155
              ],
              [
                -80.15731723488896,
                26.18102892499659
              ],
              [
                -80.15712286705896,
                26.18102042971048
              ],
              [
                -80.1569370221432,
                26.181014178299144
              ],
              [
                -80.15692840617297,
                26.181013888638468
              ],
              [
                -80.1569257528439,
                26.18101992048313
              ],
              [
                -80.15692840581576,
                26.181013938279115
              ],
              [
                -80.15712286670183,
                26.18102047935114
              ],
              [
                -80.15731723453193,
                26.181028974637236
              ],
              [
                -80.15751148631502,
                26.181039423100824
              ],
              [
                -80.15770559607209,
                26.181051821882647
              ],
              [
                -80.15789954180588,
                26.181066170854802
              ],
              [
                -80.1580932975308,
                26.18108246806087
              ],
              [
                -80.15828684026211,
                26.18110071156216
              ],
              [
                -80.15848014602126,
                26.181120898511722
              ],
              [
                -80.1586731908231,
                26.181143026965238
              ],
              [
                -80.1588659506889,
                26.181167094076
              ],
              [
                -80.15905840064607,
                26.181193096089004
              ],
              [
                -80.15925051870987,
                26.18122103107198
              ],
              [
                -80.15944227990752,
                26.181250895270207
              ],
              [
                -80.15963366027292,
                26.181282684032325
              ],
              [
                -80.15982463683373,
                26.181316393615493
              ],
              [
                -80.16001518561076,
                26.181352021173716
              ],
              [
                -80.16298479052168,
                26.181922798716418
              ],
              [
                -80.16298483803621,
                26.18192426932162
              ],
              [
                -80.16307015381058,
                26.184578263696807
              ],
              [
                -80.16307219691365,
                26.184578219618476
              ],
              [
                -80.17107901979603,
                26.184403809773748
              ],
              [
                -80.17108126800544,
                26.184403761347472
              ],
              [
                -80.17311752491433,
                26.184363448817148
              ],
              [
                -80.17311990516862,
                26.184363401117732
              ],
              [
                -80.17327252225914,
                26.184162361589728
              ],
              [
                -80.17327735603155,
                26.18415599445875
              ],
              [
                -80.17335083922045,
                26.184191863394478
              ],
              [
                -80.17342379076307,
                26.18422964455079
              ],
              [
                -80.1734956663401,
                26.18426907034124
              ],
              [
                -80.1735664191219,
                26.184310114323218
              ],
              [
                -80.17363592557662,
                26.184352703581194
              ],
              [
                -80.17363502107995,
                26.184352724562437
              ],
              [
                -80.17362095264157,
                26.18435301022809
              ],
              [
                -80.17359623458088,
                26.184353510929075
              ],
              [
                -80.17359532410124,
                26.184353529167907
              ],
              [
                -80.17355057204774,
                26.184354493373537
              ],
              [
                -80.17355945464112,
                26.18435999968421
              ],
              [
                -80.17362693866174,
                26.184401834494317
              ],
              [
                -80.17369982457964,
                26.184449092407203
              ],
              [
                -80.17377127667666,
                26.184498098505653
              ],
              [
                -80.17383914152535,
                26.18454695129282
              ],
              [
                -80.17390968033646,
                26.184601213319805
              ],
              [
                -80.17397653038108,
                26.184655248346704
              ],
              [
                -80.17404113006369,
                26.18471035444602
              ],
              [
                -80.17410318453175,
                26.184766210409055
              ],
              [
                -80.17416499983118,
                26.184824923498784
              ],
              [
                -80.17422504509817,
                26.18488511298291
              ],
              [
                -80.17428327762873,
                26.18494673439128
              ],
              [
                -80.17433965671303,
                26.185009744167854
              ],
              [
                -80.17439413964652,
                26.185074097842428
              ],
              [
                -80.17444668775121,
                26.18513974735758
              ],
              [
                -80.17449726433684,
                26.185206646472412
              ],
              [
                -80.17454583173148,
                26.185274746232608
              ],
              [
                -80.17459235425736,
                26.185343998597823
              ],
              [
                -80.17463680026326,
                26.18541435194037
              ],
              [
                -80.17467913707821,
                26.185485757334504
              ],
              [
                -80.17471933305688,
                26.185558162249862
              ],
              [
                -80.17475736055499,
                26.185631514178983
              ],
              [
                -80.17479319092139,
                26.185705761511134
              ],
              [
                -80.17482679952512,
                26.185780849950817
              ],
              [
                -80.1748581617351,
                26.18585672520239
              ],
              [
                -80.17488725492069,
                26.185933332981712
              ],
              [
                -80.1749140574578,
                26.186010618107574
              ],
              [
                -80.17493855072956,
                26.186088524513433
              ],
              [
                -80.17496071712574,
                26.18616699523576
              ],
              [
                -80.17498054001716,
                26.186245976024388
              ],
              [
                -80.17499800581375,
                26.186325407230843
              ],
              [
                -80.17501310189392,
                26.1864052337251
              ],
              [
                -80.17502581666179,
                26.186485396772508
              ],
              [
                -80.17503614251005,
                26.18656583946636
              ],
              [
                -80.17504406984972,
                26.18664650218073
              ],
              [
                -80.17504959406814,
                26.186727328928416
              ],
              [
                -80.17505271157843,
                26.186808260117648
              ],
              [
                -80.17510565940873,
                26.18893142478732
              ],
              [
                -80.17509873628532,
                26.188931592694203
              ],
              [
                -80.17372570368356,
                26.18896483318577
              ],
              [
                -80.17364560797348,
                26.188966772308607
              ],
              [
                -80.17330963884858,
                26.188974903640947
              ],
              [
                -80.17327867239811,
                26.188975653589697
              ],
              [
                -80.17323676843749,
                26.188976667425372
              ],
              [
                -80.17323676908745,
                26.188976717071927
              ],
              [
                -80.17323603264515,
                26.188976735405245
              ],
              [
                -80.17323618266232,
                26.188982410891853
              ],
              [
                -80.17330464255757,
                26.19156301059589
              ],
              [
                -80.17329771030026,
                26.191563174750335
              ],
              [
                -80.17268300271402,
                26.191577734792688
              ],
              [
                -80.17267715912143,
                26.19157787358639
              ],
              [
                -80.17264963521025,
                26.191578525844932
              ],
              [
                -80.17264969288951,
                26.1915785749168
              ],
              [
                -80.17264924361766,
                26.19157858496963
              ],
              [
                -80.17264801386284,
                26.191578614001806
              ],
              [
                -80.1726319729935,
                26.191564552277327
              ],
              [
                -80.17262999932767,
                26.19156282238445
              ],
              [
                -80.17261348654152,
                26.191545745980772
              ],
              [
                -80.17259858772752,
                26.191527501871484
              ],
              [
                -80.1725953190375,
                26.191522720073834
              ],
              [
                -80.17258540305906,
                26.191508213386278
              ],
              [
                -80.17257324592182,
                26.191490897566254
              ],
              [
                -80.17255911798163,
                26.19147484577938
              ],
              [
                -80.17254492549826,
                26.19146184078461
              ],
              [
                -80.17254317902872,
                26.19146023946329
              ],
              [
                -80.1725256089759,
                26.191447243924642
              ],
              [
                -80.172506607865,
                26.191436007436565
              ],
              [
                -80.1724863898962,
                26.1914266566913
              ],
              [
                -80.17246518542903,
                26.191419296811908
              ],
              [
                -80.1724432339667,
                26.191414013116926
              ],
              [
                -80.172420785214,
                26.191410863003302
              ],
              [
                -80.17239809101032,
                26.191409884925857
              ],
              [
                -80.1723758547668,
                26.191411064878785
              ],
              [
                -80.17237541140872,
                26.19141108760113
              ],
              [
                -80.17235300061292,
                26.191414458049863
              ],
              [
                -80.17233111499965,
                26.19141995893539
              ],
              [
                -80.17231000112683,
                26.191427526689402
              ],
              [
                -80.17228989869633,
                26.191437076944563
              ],
              [
                -80.17227103457729,
                26.191448500889763
              ],
              [
                -80.17225362378728,
                26.191461667983486
              ],
              [
                -80.17224966179344,
                26.191465380132033
              ],
              [
                -80.17224684247334,
                26.19146751209056
              ],
              [
                -80.17223108113578,
                26.191482275435074
              ],
              [
                -80.17221714752986,
                26.19149846546689
              ],
              [
                -80.1722052020091,
                26.191515900784676
              ],
              [
                -80.1721953770435,
                26.19153438177481
              ],
              [
                -80.1721877851463,
                26.191553701487987
              ],
              [
                -80.17218251192206,
                26.191573638378443
              ],
              [
                -80.1721796179781,
                26.191593968951384
              ],
              [
                -80.17217913496755,
                26.19161446142187
              ],
              [
                -80.17218106952699,
                26.191634884763523
              ],
              [
                -80.17218539929397,
                26.191655005977832
              ],
              [
                -80.17219207484392,
                26.191674599131186
              ],
              [
                -80.17220102072885,
                26.19169343994538
              ],
              [
                -80.17229647416028,
                26.191868155862487
              ],
              [
                -80.17236771926466,
                26.19445373856528
              ],
              [
                -80.17236977156993,
                26.194453690800604
              ],
              [
                -80.17337377445668,
                26.19443025879141
              ],
              [
                -80.17337362248371,
                26.194424576076887
              ],
              [
                -80.17338055589187,
                26.194424414636334
              ],
              [
                -80.17335635664071,
                26.193522360175436
              ],
              [
                -80.17335620466211,
                26.19351667836281
              ],
              [
                -80.1783882679366,
                26.193398929389016
              ],
              [
                -80.17838831152896,
                26.19340084404563
              ],
              [
                -80.17839696105746,
                26.193779771954024
              ],
              [
                -80.1784297450683,
                26.195216124874158
              ],
              [
                -80.17842974656254,
                26.195216197090414
              ],
              [
                -80.17843180787887,
                26.19521615019348
              ],
              [
                -80.1838628721722,
                26.195093366604482
              ],
              [
                -80.18390893944337,
                26.195119891715525
              ],
              [
                -80.18395625018455,
                26.195144571735888
              ],
              [
                -80.18400471268095,
                26.19516735920914
              ],
              [
                -80.18405423518608,
                26.19518821119159
              ],
              [
                -80.18410472193881,
                26.1952070865222
              ],
              [
                -80.18415607613333,
                26.195223950352215
              ],
              [
                -80.1842081989502,
                26.195238769626812
              ],
              [
                -80.184260991532,
                26.19525151670664
              ],
              [
                -80.1843143510068,
                26.195262165734942
              ],
              [
                -80.18436817745986,
                26.19527069719002
              ],
              [
                -80.18442236595521,
                26.195277094229656
              ],
              [
                -80.18447681251952,
                26.195281345432814
              ],
              [
                -80.18453141316053,
                26.19528344208631
              ],
              [
                -80.18458606385447,
                26.195283379989906
              ],
              [
                -80.18589673515996,
                26.19525599069598
              ],
              [
                -80.18604574323903,
                26.19525189212525
              ],
              [
                -80.18619466992676,
                26.195245827984557
              ],
              [
                -80.18634348219476,
                26.19523779898982
              ],
              [
                -80.1864921480089,
                26.19522780676531
              ],
              [
                -80.18664063632922,
                26.195215853843614
              ],
              [
                -80.18687871984419,
                26.19519133848566
              ],
              [
                -80.18684908522324,
                26.194113491827
              ],
              [
                -80.18764880186055,
                26.19410195430942
              ],
              [
                -80.187648646218,
                26.194096267966174
              ],
              [
                -80.18765558258323,
                26.19409610946386
              ],
              [
                -80.18758109067745,
                26.191367997668042
              ],
              [
                -80.18758182812259,
                26.191367981072364
              ],
              [
                -80.18758177470735,
                26.191366018522114
              ],
              [
                -80.1875810393382,
                26.191366024298343
              ],
              [
                -80.1846081138848,
                26.191433498338654
              ],
              [
                -80.18458345194865,
                26.191434058082777
              ],
              [
                -80.1846074005999,
                26.19143349339363
              ],
              [
                -80.18457862317331,
                26.191434146248167
              ],
              [
                -80.18347226612656,
                26.19145923515204
              ],
              [
                -80.18347226762391,
                26.191459307368333
              ],
              [
                -80.18347020938121,
                26.191459353453595
              ],
              [
                -80.18342587011283,
                26.18964191341346
              ],
              [
                -80.18342660455218,
                26.189641895919255
              ],
              [
                -80.18342657516482,
                26.18964065829075
              ],
              [
                -80.1834265687223,
                26.189640434409903
              ],
              [
                -80.18342655622745,
                26.18963993068938
              ],
              [
                -80.18342582386441,
                26.189639937364188
              ],
              [
                -80.18137591330604,
                26.18968859332556
              ],
              [
                -80.181375291936,
                26.18968860784221
              ],
              [
                -80.18137529254525,
                26.189688663806727
              ],
              [
                -80.18137529485878,
                26.189688762203023
              ],
              [
                -80.18137483461506,
                26.189688768610424
              ],
              [
                -80.18137483427077,
                26.18968867473832
              ],
              [
                -80.18137385268368,
                26.189688698036683
              ],
              [
                -80.1813635385533,
                26.18923579709218
              ],
              [
                -80.18136401483932,
                26.18923578536044
              ],
              [
                -80.1813642749972,
                26.18923577871725
              ],
              [
                -80.1813642307086,
                26.189233813510132
              ],
              [
                -80.18136349534713,
                26.18923382015744
              ],
              [
                -80.17729299826831,
                26.189332168713257
              ],
              [
                -80.17729299883757,
                26.189332230093118
              ],
              [
                -80.17729093960668,
                26.18933227969535
              ],
              [
                -80.17726282146998,
                26.188140972276827
              ],
              [
                -80.17726268725715,
                26.188135297783212
              ],
              [
                -80.17757637949356,
                26.188127606602272
              ],
              [
                -80.17771960437256,
                26.188123052901506
              ],
              [
                -80.17786272782266,
                26.18811641528374
              ],
              [
                -80.17800571480393,
                26.18810769625679
              ],
              [
                -80.17814852827577,
                26.18809689831719
              ],
              [
                -80.17829112919688,
                26.188084023950104
              ],
              [
                -80.1784334815207,
                26.188069076560605
              ],
              [
                -80.17857554819415,
                26.18805206045075
              ],
              [
                -80.17871729217043,
                26.188032979020143
              ],
              [
                -80.17885867638392,
                26.1880118383763
              ],
              [
                -80.1789996647757,
                26.187988643729927
              ],
              [
                -80.1791402202803,
                26.187963401188803
              ],
              [
                -80.17928030683902,
                26.18793611596392
              ],
              [
                -80.17941988636719,
                26.187906796865345
              ],
              [
                -80.17955892479448,
                26.18787545092087
              ],
              [
                -80.17969738403647,
                26.1878420869408
              ],
              [
                -80.17983522902271,
                26.187806711947545
              ],
              [
                -80.17997242465752,
                26.187769336573872
              ],
              [
                -80.18010893385734,
                26.187729969636155
              ],
              [
                -80.1802447215268,
                26.18768862176749
              ],
              [
                -80.18037975256446,
                26.187645304503544
              ],
              [
                -80.18051399188164,
                26.18760002757508
              ],
              [
                -80.18064740436459,
                26.18755280432316
              ],
              [
                -80.18077995491866,
                26.187503645381376
              ],
              [
                -80.18194244387001,
                26.18706259488925
              ],
              [
                -80.18207588568791,
                26.18701315277114
              ],
              [
                -80.18221023060077,
                26.186965740186935
              ],
              [
                -80.18234543849906,
                26.18692037134787
              ],
              [
                -80.1824814732875,
                26.18687705868299
              ],
              [
                -80.18261829486956,
                26.18683581459873
              ],
              [
                -80.18275586514962,
                26.186796651512893
              ],
              [
                -80.18289414505078,
                26.186759579130293
              ],
              [
                -80.18303309648408,
                26.186724608966482
              ],
              [
                -80.18317268037295,
                26.186691750726467
              ],
              [
                -80.18331285565279,
                26.186661012298863
              ],
              [
                -80.18345358324105,
                26.186632404291483
              ],
              [
                -80.18359482507451,
                26.186605934610313
              ],
              [
                -80.18373653910123,
                26.18658160933366
              ],
              [
                -80.18387868625788,
                26.186559436362042
              ],
              [
                -80.18402122649347,
                26.18653942178547
              ],
              [
                -80.184164118763,
                26.18652157078578
              ],
              [
                -80.18430732401599,
                26.18650588945892
              ],
              [
                -80.18445080122018,
                26.186492381181928
              ],
              [
                -80.18459450933709,
                26.186481050234597
              ],
              [
                -80.18473840833492,
                26.186471899999976
              ],
              [
                -80.18488245719415,
                26.186464932050463
              ],
              [
                -80.18502661588305,
                26.186460149769445
              ],
              [
                -80.18517084338842,
                26.18645755382706
              ],
              [
                -80.18531509869703,
                26.186457144893694
              ],
              [
                -80.18760885839595,
                26.18646801543752
              ],
              [
                -80.18760890954933,
                26.18646987146959
              ],
              [
                -80.1876239729039,
                26.187020128411895
              ],
              [
                -80.18762602667276,
                26.187020139104206
              ],
              [
                -80.18822715126689,
                26.187023194932497
              ],
              [
                -80.18823409287066,
                26.18702323048298
              ],
              [
                -80.1882191374951,
                26.186476899565733
              ],
              [
                -80.18821897782328,
                26.186471068778307
              ],
              [
                -80.18821971009186,
                26.186471072909374
              ],
              [
                -80.18821970845393,
                26.1864710205494
              ],
              [
                -80.19293914983986,
                26.186495665937333
              ],
              [
                -80.19293986310244,
                26.186495669937777
              ],
              [
                -80.1929445518473,
                26.186495693527476
              ],
              [
                -80.19551455394043,
                26.186508926727395
              ],
              [
                -80.19551501511053,
                26.18650892930568
              ],
              [
                -80.19562614825874,
                26.186509528919608
              ],
              [
                -80.19590107927563,
                26.18651083625878
              ],
              [
                -80.19622784644653,
                26.1865124326289
              ],
              [
                -80.1966707345219,
                26.186514676575726
              ],
              [
                -80.19721653066549,
                26.186517493314057
              ],
              [
                -80.19807701347726,
                26.186521437462858
              ],
              [
                -80.19809812341634,
                26.186521535248946
              ],
              [
                -80.19814119531334,
                26.18652177888451
              ],
              [
                -80.19817403842853,
                26.187773221248694
              ],
              [
                -80.19919881392053,
                26.187778698871753
              ],
              [
                -80.19926106761773,
                26.187779045321896
              ],
              [
                -80.19958509410431,
                26.187780390519293
              ],
              [
                -80.1995850965195,
                26.187780476279755
              ],
              [
                -80.19958603379006,
                26.18778049412987
              ],
              [
                -80.19969303417393,
                26.187780995426287
              ],
              [
                -80.1996937474147,
                26.18778100390627
              ],
              [
                -80.2000814081786,
                26.187782848121277
              ],
              [
                -80.20008212145646,
                26.187782851183936
              ],
              [
                -80.20128404304738,
                26.187788563922403
              ],
              [
                -80.20128475632545,
                26.1877885669791
              ],
              [
                -80.20346213898303,
                26.187798892107768
              ],
              [
                -80.20346287434359,
                26.187798884444707
              ],
              [
                -80.20346287502478,
                26.18779893138372
              ],
              [
                -80.20346322916002,
                26.18779893334411
              ],
              [
                -80.2034632084043,
                26.18779801347895
              ],
              [
                -80.203465212194,
                26.187798020960933
              ],
              [
                -80.2036857699798,
                26.18779901247271
              ],
              [
                -80.2037165157222,
                26.187799182621458
              ],
              [
                -80.20393199258233,
                26.187800145638118
              ],
              [
                -80.20397156296787,
                26.189605107668363
              ],
              [
                -80.20399024909476,
                26.190444994309406
              ],
              [
                -80.20400752523567,
                26.191529723295936
              ],
              [
                -80.20400535324264,
                26.19192404026672
              ],
              [
                -80.20395352318661,
                26.1931936300477
              ],
              [
                -80.20393849309262,
                26.193871930377263
              ],
              [
                -80.20445382501585,
                26.193875468726922
              ],
              [
                -80.20493490194076,
                26.193871479593206
              ],
              [
                -80.20509856765027,
                26.193869632853716
              ],
              [
                -80.20746724886465,
                26.193865963974275
              ],
              [
                -80.20778795020776,
                26.19386566784674
              ],
              [
                -80.20779802784088,
                26.194329289113597
              ],
              [
                -80.20780416041524,
                26.194587241011085
              ],
              [
                -80.20781102325112,
                26.194925209753816
              ],
              [
                -80.20784042945392,
                26.19625050021619
              ],
              [
                -80.20784455350764,
                26.196429575376687
              ],
              [
                -80.20786807310378,
                26.197498290702082
              ],
              [
                -80.21137254067028,
                26.19749278531869
              ],
              [
                -80.21137331801432,
                26.197943287517884
              ],
              [
                -80.21155908711427,
                26.19794315952268
              ],
              [
                -80.21189200170964,
                26.197942461050427
              ],
              [
                -80.21189488926281,
                26.19962754561078
              ],
              [
                -80.21189732278559,
                26.200927010252418
              ],
              [
                -80.21189763938789,
                26.20111880463548
              ],
              [
                -80.21240430954397,
                26.201118010928994
              ],
              [
                -80.21318680152099,
                26.201117019456706
              ],
              [
                -80.21713357766833,
                26.20111150173066
              ],
              [
                -80.21954789775043,
                26.201108114961922
              ],
              [
                -80.22002761435498,
                26.201107259165926
              ],
              [
                -80.22002796740509,
                26.20110728003496
              ],
              [
                -80.22002566794166,
                26.200998597963668
              ],
              [
                -80.22002564803877,
                26.200997680812684
              ],
              [
                -80.22024166947263,
                26.200996788682218
              ],
              [
                -80.22029326788157,
                26.200995463562997
              ],
              [
                -80.22101933281651,
                26.200995958562654
              ],
              [
                -80.2222767856283,
                26.20099817771351
              ],
              [
                -80.22345678839658,
                26.200991026590316
              ],
              [
                -80.22370585251132,
                26.20098939059402
              ],
              [
                -80.22387282704301,
                26.200988457558406
              ],
              [
                -80.22446470786683,
                26.2009888988569
              ],
              [
                -80.22468326614865,
                26.200988701514046
              ],
              [
                -80.22502508460632,
                26.200988021682065
              ],
              [
                -80.22527159839414,
                26.200987744798617
              ],
              [
                -80.22536233031364,
                26.200987087150544
              ],
              [
                -80.22692731879833,
                26.200984731465034
              ],
              [
                -80.22827705442873,
                26.200982350352575
              ],
              [
                -80.22928294013552,
                26.200980407195683
              ],
              [
                -80.23090511428556,
                26.200977397571734
              ],
              [
                -80.23111833763507,
                26.200976932661888
              ],
              [
                -80.23210236733308,
                26.200975082213187
              ],
              [
                -80.23210492807861,
                26.201088350900005
              ],
              [
                -80.2361253292307,
                26.201081998201992
              ],
              [
                -80.23612567227964,
                26.20108201897846
              ],
              [
                -80.23608638035755,
                26.197447323769506
              ],
              [
                -80.23608637033922,
                26.197446405768087
              ],
              [
                -80.24007345284146,
                26.19743909483043
              ],
              [
                -80.24015125793667,
                26.201073995377943
              ],
              [
                -80.24389703604496,
                26.20106668114772
              ],
              [
                -80.24417557395248,
                26.201066081670618
              ],
              [
                -80.24425592982298,
                26.20475853837945
              ],
              [
                -80.24433185465914,
                26.20831112056647
              ],
              [
                -80.24433150156973,
                26.208311101561687
              ],
              [
                -80.24433152152884,
                26.2083120394718
              ],
              [
                -80.24030692887762,
                26.208340810196162
              ],
              [
                -80.24030656664915,
                26.208340811893088
              ],
              [
                -80.24031201352575,
                26.208519665307797
              ],
              [
                -80.24054937346278,
                26.217802341906008
              ],
              [
                -80.24056682588994,
                26.21848104818405
              ],
              [
                -80.24062476591857,
                26.220753563151018
              ],
              [
                -80.24067307378564,
                26.222630780088473
              ],
              [
                -80.24081589713283,
                26.22822914891515
              ],
              [
                -80.24081592103649,
                26.228230091356643
              ],
              [
                -80.24033383066741,
                26.22822639974341
              ],
              [
                -80.24033348042138,
                26.228226396087084
              ],
              [
                -80.24033796029364,
                26.228475856177933
              ]
            ],
            [
              [
                -80.1839381919621,
                26.195134748328126
              ],
              [
                -80.18391919925625,
                26.195124786935324
              ],
              [
                -80.18394155867806,
                26.195136456185477
              ],
              [
                -80.1839381919621,
                26.195134748328126
              ]
            ],
            [
              [
                -80.18403469859707,
                26.195179772118447
              ],
              [
                -80.18401493538941,
                26.195171406672895
              ],
              [
                -80.18401105974293,
                26.195169653508504
              ],
              [
                -80.18405222076152,
                26.19518698487031
              ],
              [
                -80.18403469859707,
                26.195179772118447
              ]
            ],
            [
              [
                -80.18409476335282,
                26.195203038757484
              ],
              [
                -80.1840742314111,
                26.195195585998988
              ],
              [
                -80.18405756649754,
                26.195189113728652
              ],
              [
                -80.184095604699,
                26.195203334165466
              ],
              [
                -80.18409476335282,
                26.195203038757484
              ]
            ],
            [
              [
                -80.18413532541005,
                26.195217024381005
              ],
              [
                -80.18411529893326,
                26.195210256858434
              ],
              [
                -80.18415395805847,
                26.195222953606848
              ],
              [
                -80.18413532541005,
                26.195217024381005
              ]
            ],
            [
              [
                -80.1841974566445,
                26.195235488242997
              ],
              [
                -80.18417665939702,
                26.195229638812474
              ],
              [
                -80.18416340901133,
                26.195225765540783
              ],
              [
                -80.18420097670852,
                26.1952364396848
              ],
              [
                -80.1841974566445,
                26.195235488242997
              ]
            ],
            [
              [
                -80.18426099203505,
                26.195251444501707
              ],
              [
                -80.18425545268846,
                26.195250107033427
              ],
              [
                -80.18426036940107,
                26.195251205393255
              ],
              [
                -80.18427131764543,
                26.195253505011664
              ],
              [
                -80.18426099203505,
                26.195251444501707
              ]
            ]
          ],
          [
            [
              [
                -80.15656353892194,
                26.18114450174022
              ],
              [
                -80.15671594096024,
                26.181146606117743
              ],
              [
                -80.15686415646341,
                26.181149830297635
              ],
              [
                -80.15686417782722,
                26.181149780780054
              ],
              [
                -80.15671594131754,
                26.1811465564771
              ],
              [
                -80.15656401140124,
                26.181144458476894
              ],
              [
                -80.1565635392793,
                26.181144452099574
              ],
              [
                -80.15656353892194,
                26.18114450174022
              ]
            ]
          ]
        ]
      }
    }
  ]
}