{
  "type": "FeatureCollection",
  "features": [
    {
      "type": "Feature",
      "properties": {
        "CITYNAME": "Weston",
        "name": "City-wide",
        "schedule_2025": "Weekly bulk pickup",
        "CONTACT": "Weston Public Works",
        "PHONE": "(954) 385-2000"
      },
      "geometry": {
        "type": "Polygon",
        "coordinates": [
          [
            [
              -80.36908483721143,
              26.128713369441712
            ],
            [
              -80.37049102473559,
              26.129185353065715
            ],
            [
              -80.38876800290959,
              26.133466743625075
            ],
            [
              -80.4126996761143,
              26.139152943899415
            ],
            [
              -80.44024712529067,
              26.14553425474172
            ],
            [
              -80.44034967023063,
              26.145559041400748
            ],
            [
              -80.44176822216248,
              26.145901913568782
            ],
            [
              -80.44707976552918,
              26.146067663610847
            ],
            [
              -80.4478549613243,
              26.14458495278187
            ],
            [
              -80.44961642842573,
              26.14459970312272
            ],
            [
              -80.44967035828718,
              26.142581428215713
            ],
            [
              -80.44973863923234,
              26.140789285928623
            ],
            [
              -80.44912530431492,
              26.138183069922547
            ],
            [
              -80.44411116112344,
              26.11680915506248
            ],
            [
              -80.44306519316736,
              26.11260354268608
            ],
            [
              -80.44319984594048,
              26.11181482343462
            ],
            [
              -80.44315826162021,
              26.11050808651607
            ],
            [
              -80.44297068144674,
              26.105989570572543
            ],
            [
              -80.44278832028411,
              26.100076081183545
            ],
            [
              -80.4423141075162,
              26.087722402786564
            ],
            [
              -80.44228796594041,
              26.080456018575763
            ],
            [
              -80.44226338246294,
              26.073190763280873
            ],
            [
              -80.44210224811735,
              26.06594286083411
            ],
            [
              -80.44199786026672,
              26.06193593053967
            ],
            [
              -80.43474975068109,
              26.06191323928808
            ],
            [
              -80.43430502712863,
              26.061911497550437
            ],
            [
              -80.43398468156407,
              26.061910700626914
            ],
            [
              -80.4332825629333,
              26.06190886355318
            ],
            [
              -80.42598801357158,
              26.06188532088924
            ],
            [
              -80.42394424074699,
              26.061851961392637
            ],
            [
              -80.42210291256313,
              26.061895272116107
            ],
            [
              -80.42193231194426,
              26.06189917460594
            ],
            [
              -80.41992063481433,
              26.06194659004129
            ],
            [
              -80.41778709812323,
              26.061996925150904
            ],
            [
              -80.40983163428174,
              26.062160195110888
            ],
            [
              -80.40798417320336,
              26.0622101786731
            ],
            [
              -80.39927364771917,
              26.062445885329595
            ],
            [
              -80.39349315252313,
              26.062592755274036
            ],
            [
              -80.37423372246408,
              26.06305187347635
            ],
            [
              -80.37392958240632,
              26.063058579390717
            ],
            [
              -80.37111386003913,
              26.06312406448993
            ],
            [
              -80.36246558847178,
              26.06332621448367
            ],
            [
              -80.36215945116595,
              26.063329327668985
            ],
            [
              -80.36241759275957,
              26.073180158190166
            ],
            [
              -80.36241688169048,
              26.075775191216902
            ],
            [
              -80.36241674124265,
              26.076288638577594
            ],
            [
              -80.36241780049957,
              26.076325027527776
            ],
            [
              -80.36243405871828,
              26.076426058953285
            ],
            [
              -80.36244075566233,
              26.07647065157312
            ],
            [
              -80.36246401795444,
              26.076613280224915
            ],
            [
              -80.36248170981717,
              26.076706506581516
            ],
            [
              -80.3625011973663,
              26.076799443900406
            ],
            [
              -80.36252247981174,
              26.07689205426675
            ],
            [
              -80.36254554729001,
              26.076984314167845
            ],
            [
              -80.36259982662688,
              26.07717670388576
            ],
            [
              -80.36264178337683,
              26.077307981400015
            ],
            [
              -80.36268741855467,
              26.07743941144236
            ],
            [
              -80.36272104151821,
              26.077528991066856
            ],
            [
              -80.36272096222565,
              26.077882751851284
            ],
            [
              -80.36256863829996,
              26.077882824725695
            ],
            [
              -80.36256830976858,
              26.079101745196436
            ],
            [
              -80.36256814749974,
              26.07970306541527
            ],
            [
              -80.36256790716124,
              26.080593198149412
            ],
            [
              -80.36241556334078,
              26.080593159700882
            ],
            [
              -80.36241813376921,
              26.080642670569897
            ],
            [
              -80.36241531444246,
              26.081498467342932
            ],
            [
              -80.36241458314304,
              26.084147541570058
            ],
            [
              -80.36241414410611,
              26.08573694701121
            ],
            [
              -80.3624140277926,
              26.086158135689956
            ],
            [
              -80.36241227202746,
              26.08819789071396
            ],
            [
              -80.3624009037755,
              26.092118444236455
            ],
            [
              -80.36239513389002,
              26.094107835565296
            ],
            [
              -80.36238885495878,
              26.09627207103458
            ],
            [
              -80.36237150383764,
              26.102250854727085
            ],
            [
              -80.36267776737095,
              26.10225199809703
            ],
            [
              -80.36267782690892,
              26.102293392103306
            ],
            [
              -80.36267407352143,
              26.103627592703347
            ],
            [
              -80.36244755065134,
              26.10494190551404
            ],
            [
              -80.36244399448908,
              26.10620630606267
            ],
            [
              -80.36244046903361,
              26.10746497392335
            ],
            [
              -80.3624400029786,
              26.107597718958704
            ],
            [
              -80.36248380671047,
              26.107668068636524
            ],
            [
              -80.36262373748748,
              26.107712935922873
            ],
            [
              -80.36265517336967,
              26.110064222717895
            ],
            [
              -80.36262287430311,
              26.119524999514628
            ],
            [
              -80.36262269185296,
              26.11956600151473
            ],
            [
              -80.36247409568828,
              26.119565465390657
            ],
            [
              -80.36247031344448,
              26.119568372277946
            ],
            [
              -80.36246909402091,
              26.119843756151944
            ],
            [
              -80.3624452094527,
              26.125235153527036
            ],
            [
              -80.3625958694816,
              26.12529430382926
            ],
            [
              -80.3625956663571,
              26.125338182380293
            ],
            [
              -80.36260281980312,
              26.126136343719672
            ],
            [
              -80.36259098015546,
              26.126859436085066
            ],
            [
              -80.36258867105482,
              26.127378489129725
            ],
            [
              -80.36371845179389,
              26.12765005696285
            ],
            [
              -80.36575476178733,
              26.12813941092127
            ],
            [
              -80.36722647633566,
              26.128387968374675
            ],
            [
              -80.36908483721143,
              26.128713369441712
            ]
          ]
        ]
      }
    }
  ]
}