{
  "type": "FeatureCollection",
  "features": [
    {
      "type": "Feature",
      "properties": {
        "zone_id": "NW",
        "name": "Northwest Zone",
        "description": "North of NE 26th St (including NE 26th St addresses)",
        "pickup_day": "Monday",
        "schedule_2025": "January 20, February 17, March 17, April 21, May 19, June 16, July 21, August 18, September 15, October 20, November 17, December 15",
        "recycling_day": "Monday",
        "city": "Wilton Manors"
      },
      "geometry": {
        "type": "Polygon",
        "coordinates": [[
          [-80.1470, 26.1604],
          [-80.1470, 26.1700],
          [-80.1380, 26.1700],
          [-80.1300, 26.1680],
          [-80.1300, 26.1604],
          [-80.1470, 26.1604]
        ]]
      }
    },
    {
      "type": "Feature",
      "properties": {
        "zone_id": "SE",
        "name": "Southeast Zone",
        "description": "South of NE 26th St",
        "pickup_day": "Tuesday",
        "schedule_2025": "January 21, February 18, March 18, April 22, May 20, June 17, July 22, August 19, September 16, October 21, November 18, December 16",
        "recycling_day": "Tuesday",
        "city": "Wilton Manors"
      },
      "geometry": {
        "type": "Polygon",
        "coordinates": [[
          [-80.1470, 26.1500],
          [-80.1470, 26.1604],
          [-80.1300, 26.1604],
          [-80.1300, 26.1520],
          [-80.1380, 26.1500],
          [-80.1470, 26.1500]
        ]]
      }
    }
  ]
}
